PK;NOMBRE;DESCRIPCION-ENTIDAD;HORARIO;EQUIPAMIENTO;TRANSPORTE;DESCRIPCION;ACCESIBILIDAD;CONTENT-URL;NOMBRE-VIA;CLASE-VIAL;TIPO-NUM;NUM;PLANTA;PUERTA;ESCALERAS;ORIENTACION;LOCALIDAD;PROVINCIA;CODIGO-POSTAL;BARRIO;DISTRITO;COORDENADA-X;COORDENADA-Y;LATITUD;LONGITUD;TELEFONO;FAX;EMAIL;TIPO;
11025958;"Asambleas de Evangelización Mundial para Cristo (AEMC)";"Templo evangélico";"";"";"Metro: San Francisco (línea 11)  Bus: 108, 118, 121, 131, 47";"";"3";"http://www.madrid.es/sites/v/index.jsp?vgnextchannel=bfa48ab43d6bb410VgnVCM100000171f5a0aRCRD&vgnextoid=2a060d28e4e5d610VgnVCM2000001f4a900aRCRD";"ANTONIA RODRIGUEZ SACRISTAN";"CALLE";"V";"8";"";"";"";"";"MADRID";"MADRID";"28044";"BUENAVISTA";"CARABANCHEL";"436747";"4469402";"40.372800292475574";"-3.745073767335671";"";"";"";"/contenido/entidadesYorganismos/TemplosOtrasReligiones"; 
4530770;"Asociación Darse - Dar Ayuda para la Reinserción Social España";"";"";"";"Metro 5(calle Camino Viejo de Leganés 1):urgel";"Entidad inscrita en el Censo Municipal de Entidades y Colectivos Ciudadanos.";"0";"http://www.madrid.es/sites/v/index.jsp?vgnextchannel=bfa48ab43d6bb410VgnVCM100000171f5a0aRCRD&vgnextoid=358393b8cb901110VgnVCM2000000c205a0aRCRD";"ALTO DE SAN ISIDRO";"CAMINO";"V";"16";"2º C";"C";"";"";"MADRID";"MADRID";"28019";"SAN ISIDRO";"CARABANCHEL";"438658";"4472013";"40.39646987780765";"-3.7228134710524623";"676247792";"";"darseorg@gmail.com";"/contenido/entidadesYorganismos/TemplosOtrasReligiones"; 
11431772;"Asociación Tiempo Para Cuidar";"Templo evangélico";"";"";"Metro: Palos de la Frontera (línea 3)  Bus:  102, 8";"";"3";"http://www.madrid.es/sites/v/index.jsp?vgnextchannel=bfa48ab43d6bb410VgnVCM100000171f5a0aRCRD&vgnextoid=ed53eadaeea7a710VgnVCM1000001d4a900aRCRD";"GENERAL LACY";"CALLE";"V";"24";"BAJA A";"";"";"";"MADRID";"MADRID";"28045";"PALOS DE MOGUER";"ARGANZUELA";"441369";"4472742";"40.40323382462609";"-3.690948499497669";"";"";"";"/contenido/entidadesYorganismos/TemplosOtrasReligiones"; 
11431776;"Asociación Visión Internacional";"Templo evangélico";"";"";"Metro: Torre Arias (línea 5)  Bus:  28, 48";"";"3";"http://www.madrid.es/sites/v/index.jsp?vgnextchannel=bfa48ab43d6bb410VgnVCM100000171f5a0aRCRD&vgnextoid=3104eadaeea7a710VgnVCM1000001d4a900aRCRD";"DISCOBOLO";"CALLE";"V";"53";"";"";"";"";"MADRID";"MADRID";"28022";"CANILLEJAS";"SAN BLAS-CANILLEJAS";"448015";"4477077";"40.44272761836337";"-3.612983497525048";"";"";"";"/contenido/entidadesYorganismos/TemplosOtrasReligiones"; 
11026233;"Casa sobre la Roca Iglesia Cristiana Integral - Madrid";"Templo evangélico";"";"";"Metro: Arturo Soria (línea 4)  Bus: 120, 122, 11, 70";"";"3";"http://www.madrid.es/sites/v/index.jsp?vgnextchannel=bfa48ab43d6bb410VgnVCM100000171f5a0aRCRD&vgnextoid=0d9fb608d026d610VgnVCM2000001f4a900aRCRD";"ULISES";"CALLE";"V";"1";"";"";"";"";"MADRID";"MADRID";"28043";"COLINA";"CIUDAD LINEAL";"444411";"4478618";"40.456371724419725";"-3.6556133054897137";"";"";"";"/contenido/entidadesYorganismos/TemplosOtrasReligiones"; 
3387;"Catedral Anglicana de Madrid";"";"";"";"Metro: Alonso Martínez (líneas 4, 5, 10), Tribunal (líneas 1, 10)  Bus: 149, 3, 40, 37  Bicimad: Estación 54 (calle Barceló, 7) / estación 7 (calle Hortaleza, 75)  Aparcamiento: Barceló (69), calle Barceló, sin número / Arquitecto Ribera (Barceló) (17), calle Barceló, 2)";"";"3";"http://www.madrid.es/sites/v/index.jsp?vgnextchannel=bfa48ab43d6bb410VgnVCM100000171f5a0aRCRD&vgnextoid=94ef13db5b71c010VgnVCM1000000b205a0aRCRD";"BENEFICENCIA";"CALLE";"NUM";"18";"";"";"";"";"MADRID";"MADRID";"28004";"JUSTICIA";"CENTRO";"440734";"4475314";"40.42635120982088";"-3.698682579292043";"914 452 560 / 609 876 913";"";"anglicanspain@gmail.com";"/contenido/entidadesYorganismos/TemplosOtrasReligiones"; 
3388;"Catedral Ortodoxa Griega. Santa Iglesia Catedral de los Santos Andrés y Demetrio";"";"";"";"Metro: Colombia (líneas 8, 9)  Bus: 7, 11, 40, 52, 87";"";"3";"http://www.madrid.es/sites/v/index.jsp?vgnextchannel=bfa48ab43d6bb410VgnVCM100000171f5a0aRCRD&vgnextoid=82547b503a71c010VgnVCM1000000b205a0aRCRD";"NICARAGUA";"CALLE";"V";"12";"";"";"";"";"MADRID";"MADRID";"28016";"HISPANOAMERICA";"CHAMARTIN";"442946";"4478760";"40.45754917910687";"-3.672905343222746";"913 454 085 / 913 503 705";"913 509 374";"metropoliespo@yahoo.es";"/contenido/entidadesYorganismos/TemplosOtrasReligiones"; 
11030102;"Centro Apostólico Cristo Viene";"Templo evangélico";"";"";"Metro: Almendrales (línea 3)  Bus: 123, 23, 18, 22, 59, 76, 79, 85, 86";"";"3";"http://www.madrid.es/sites/v/index.jsp?vgnextchannel=bfa48ab43d6bb410VgnVCM100000171f5a0aRCRD&vgnextoid=cec2be0e48e6d610VgnVCM2000001f4a900aRCRD";"ANTONIO LOPEZ";"CALLE";"V";"236";"1";"";"";"";"MADRID";"MADRID";"28026";"ALMENDRALES";"USERA";"440917";"4470580";"40.383724492823504";"-3.6960683266163925";"";"";"";"/contenido/entidadesYorganismos/TemplosOtrasReligiones"; 
7063869;"Centro Cristiano Ciudad de Refugio";"Templo evangélico";"";"";"Metro: San Cristóbal (línea 3)  Bus: 59, 79  Cercanías: San Cristóbal del los Ángeles";"";"3";"http://www.madrid.es/sites/v/index.jsp?vgnextchannel=bfa48ab43d6bb410VgnVCM100000171f5a0aRCRD&vgnextoid=9d28ec795b750410VgnVCM2000000c205a0aRCRD";"GODELLA";"CALLE";"V";"103";"1";"D";"";"";"MADRID";"MADRID";"28021";"SAN CRISTOBAL";"VILLAVERDE";"441595";"4465935";"40.34192622597721";"-3.6876586251390493";"";"";"";"/contenido/entidadesYorganismos/TemplosOtrasReligiones"; 
3751;"Centro Cultural Islámico. Mezquita de Madrid";"";"";"";"Metro: Parque de las Avenidas: (línea 7), Barrio de la Concepción (línea 7)  Bus: 53, 122";"";"3";"http://www.madrid.es/sites/v/index.jsp?vgnextchannel=bfa48ab43d6bb410VgnVCM100000171f5a0aRCRD&vgnextoid=a3b71e79ee71c010VgnVCM1000000b205a0aRCRD";"SALVADOR DE MADARIAGA";"CALLE";"V";"7";"";"";"";"";"MADRID";"MADRID";"28027";"SAN PASCUAL";"CIUDAD LINEAL";"444248";"4476638";"40.438521492191306";"-3.6573640044493407";"913 262 610";"";"info@centro-islamico.com";"/contenido/entidadesYorganismos/TemplosOtrasReligiones"; 
7066102;"Centro de Evangelización Anuncio de Paz";"Templo evangélico";"";"";"Metro: Nueva Numancia (línea 1)  Bus: 10, 111, 24, 310, 136, 54, 57, 58";"";"3";"http://www.madrid.es/sites/v/index.jsp?vgnextchannel=bfa48ab43d6bb410VgnVCM100000171f5a0aRCRD&vgnextoid=17bb8105e2260410VgnVCM2000000c205a0aRCRD";"PUERTO DEL MONASTERIO";"CALLE";"V";"10";"BAJO";"";"";"";"MADRID";"MADRID";"28053";"SAN DIEGO";"PUENTE DE VALLECAS";"443545";"4471788";"40.39477355030102";"-3.665233691809319";"";"";"";"/contenido/entidadesYorganismos/TemplosOtrasReligiones"; 
7064897;"Centro Evangélico de Restauración Aliento de Vida";"Templo evangélico";"";"";"Metro: Sierra de Guadalupe (línea 1)  Bus: 130, T31  Cercanías: Vallecas";"";"3";"http://www.madrid.es/sites/v/index.jsp?vgnextchannel=bfa48ab43d6bb410VgnVCM100000171f5a0aRCRD&vgnextoid=03479bd56dc50410VgnVCM2000000c205a0aRCRD";"PUERTO DE LAS PILAS";"CALLE";"V";"12";"";"";"";"";"MADRID";"MADRID";"28031";"CASCO H.VALLECAS";"VILLA DE VALLECAS";"446793";"4469998";"40.37887387719392";"-3.6268000188410188";"";"";"";"/contenido/entidadesYorganismos/TemplosOtrasReligiones"; 
11025954;"Christ International Ministries";"Templo evangélico";"";"";"Bus: 83, 133";"";"3";"http://www.madrid.es/sites/v/index.jsp?vgnextchannel=bfa48ab43d6bb410VgnVCM100000171f5a0aRCRD&vgnextoid=3ab50d28e4e5d610VgnVCM2000001f4a900aRCRD";"LA ALBERCA";"CALLE";"V";"1";"";"";"";"";"MADRID";"MADRID";"28035";"FUENTELARREINA";"FUENCARRAL-EL PARDO";"436372";"4481073";"40.47790731731759";"-3.750655777091982";"";"";"";"/contenido/entidadesYorganismos/TemplosOtrasReligiones"; 
11025949;"Christ Missions Evangelical Church";"Templo evangélico";"";"";"Bus: T41    Cercanías: (C4, C5)    Metro: Villaverde Alto (línea 3)";"";"3";"http://www.madrid.es/sites/v/index.jsp?vgnextchannel=bfa48ab43d6bb410VgnVCM100000171f5a0aRCRD&vgnextoid=96350d28e4e5d610VgnVCM2000001f4a900aRCRD";"CIUDAD DE FRIAS";"";"V";"18";"";"";"";"";"MADRID";"MADRID";"28021";"VILLAVERDE ALTO C.H.";"VILLAVERDE";"439369";"4465530";"40.33811971589477";"-3.713824312166029";"";"";"";"/contenido/entidadesYorganismos/TemplosOtrasReligiones"; 
7064962;"Comunidad Cristiana Decisión";"Templo evangélico";"";"";"Metro: Canillejas (línea 5)  Bus: 77";"";"3";"http://www.madrid.es/sites/v/index.jsp?vgnextchannel=bfa48ab43d6bb410VgnVCM100000171f5a0aRCRD&vgnextoid=6b760ac0dfc50410VgnVCM2000000c205a0aRCRD";"MEQUINENZA";"CALLE";"V";"20";"local";"";"";"";"MADRID";"MADRID";"28022";"CANILLEJAS";"SAN BLAS-CANILLEJAS";"448653";"4477623";"40.44768356828449";"-3.605497309069597";"";"";"";"/contenido/entidadesYorganismos/TemplosOtrasReligiones"; 
3740;"Comunidad Cristiana Eben-Ezer de la Villa de Vallecas";"";"";"";"Metro: Congosto (línea 1)  Bus: 54, 142";"";"3";"http://www.madrid.es/sites/v/index.jsp?vgnextchannel=bfa48ab43d6bb410VgnVCM100000171f5a0aRCRD&vgnextoid=04750a47f441f010VgnVCM2000000c205a0aRCRD";"SIERRA DE TORTEJADA";"CALLE";"V";"2";"";"";"";"";"MADRID";"MADRID";"28031";"CASCO H.VALLECAS";"VILLA DE VALLECAS";"447525";"4469177";"40.37152812090639";"-3.6181096496598038";"";"";"";"/contenido/entidadesYorganismos/TemplosOtrasReligiones"; 
7065794;"Comunidad cristiana Eben-ezer de Pueblo Nuevo";"";"";"";"Bus: 105";"";"3";"http://www.madrid.es/sites/v/index.jsp?vgnextchannel=bfa48ab43d6bb410VgnVCM100000171f5a0aRCRD&vgnextoid=ac0a5ac33d160410VgnVCM2000000c205a0aRCRD";"JULIAN CAMARILLO";"CALLE";"V";"39";"";"";"";"";"MADRID";"MADRID";"28037";"SIMANCAS";"SAN BLAS-CANILLEJAS";"446993";"4476322";"40.43586084470142";"-3.6249632986560396";"";"";"";"/contenido/entidadesYorganismos/TemplosOtrasReligiones"; 
7065892;"Comunidad cristiana El Faro";"Templo evangélico";"";"";"Bus: 24, 10, 111, 310  Metro: Nueva Numancia (línea 1)";"";"3";"http://www.madrid.es/sites/v/index.jsp?vgnextchannel=bfa48ab43d6bb410VgnVCM100000171f5a0aRCRD&vgnextoid=306150adce160410VgnVCM2000000c205a0aRCRD";"SIERRA DE ALCUBIERRE";"CALLE";"V";"2";"";"";"";"y 4";"MADRID";"MADRID";"28053";"SAN DIEGO";"PUENTE DE VALLECAS";"443374";"4471548";"40.39261217147179";"-3.6672087802537865";"";"";"";"/contenido/entidadesYorganismos/TemplosOtrasReligiones"; 
7065996;"Comunidad Cristiana Maranatha";"Templo evangélico";"";"";"Metro: Menéndez Pelayo (línea 1)    Bus: 24, 37, 54, 57, 102, 141, 152";"";"3";"http://www.madrid.es/sites/v/index.jsp?vgnextchannel=bfa48ab43d6bb410VgnVCM100000171f5a0aRCRD&vgnextoid=429604a5d0260410VgnVCM2000000c205a0aRCRD";"GRANADA";"CALLE";"V";"8";"";"";"";"";"MADRID";"MADRID";"28007";"PACIFICO";"RETIRO";"442293";"4472936";"40.40503855717772";"-3.6800894670027358";"";"";"";"/contenido/entidadesYorganismos/TemplosOtrasReligiones"; 
11431015;"Comunidad Cristiana Misionera Newma España";"Templo evangélico";"";"";"Bus: 22, 79";"";"3";"http://www.madrid.es/sites/v/index.jsp?vgnextchannel=bfa48ab43d6bb410VgnVCM100000171f5a0aRCRD&vgnextoid=f086eafcd367a710VgnVCM1000001d4a900aRCRD";"ANGOSTA";"CALLE";"V";"2";"3ª";"D";"";"";"MADRID";"MADRID";"28021";"VILLAVERDE ALTO C.H.";"VILLAVERDE";"439586";"4466223";"40.34437332233989";"-3.7113397899660177";"";"";"";"/contenido/entidadesYorganismos/TemplosOtrasReligiones"; 
11431093;"Comunidad Eben-Ezer Dios Es Amor";"";"";"";"Metro: Miguel Hernández (línea 1)  Bus: 10, 144, 310, 57";"";"3";"http://www.madrid.es/sites/v/index.jsp?vgnextchannel=bfa48ab43d6bb410VgnVCM100000171f5a0aRCRD&vgnextoid=ae7498f0f567a710VgnVCM1000001d4a900aRCRD";"VILLALOBOS";"CALLE";"V";"11";"";"local";"";"";"MADRID";"MADRID";"28018";"PALOMERAS SURESTE";"PUENTE DE VALLECAS";"445077";"4470354";"40.381966779984396";"-3.647037080630487";"";"";"";"/contenido/entidadesYorganismos/TemplosOtrasReligiones"; 
7065908;"Comunidad Evangélica de habla alemana";"Templo evangélico";"";"";"Metro: Colón (línea 4)  Bus:  27, 45, 150, 5, 14  Bicimad: Estación 104 (Paseo Castellana, 4)";"";"3";"http://www.madrid.es/sites/v/index.jsp?vgnextchannel=bfa48ab43d6bb410VgnVCM100000171f5a0aRCRD&vgnextoid=95f550adce160410VgnVCM2000000c205a0aRCRD";"CASTELLANA";"PASEO";"V";"6";"";"";"";"";"MADRID";"MADRID";"28046";"RECOLETOS";"SALAMANCA";"441519";"4475403";"40.42721250117197";"-3.689422328230453";"";"";"";"/contenido/entidadesYorganismos/TemplosOtrasReligiones"; 
11025240;"Comunidad Evangélica Internacional";"Templo evangélico";"";"";"Metro: Carabanchel Alto (línea 11)  Bus: 155";"";"3";"http://www.madrid.es/sites/v/index.jsp?vgnextchannel=bfa48ab43d6bb410VgnVCM100000171f5a0aRCRD&vgnextoid=20f07b42aed5d610VgnVCM2000001f4a900aRCRD";"CIDRO";"CALLE";"V";"14";"BAJO";"";"";"Polígono Aguacate";"MADRID";"MADRID";"28044";"BUENAVISTA";"CARABANCHEL";"436619";"4468690";"40.366381452000546";"-3.74651822287228";"";"";"";"/contenido/entidadesYorganismos/TemplosOtrasReligiones"; 
7064568;"Comunidad Sendero de la Cruz (Iglesia de Celebración Cristiana)";"Templo evangélico";"";"";"Metro: García Noblejas (línea 7)  Bus: 28";"";"3";"http://www.madrid.es/sites/v/index.jsp?vgnextchannel=bfa48ab43d6bb410VgnVCM100000171f5a0aRCRD&vgnextoid=f5e7efba3c850410VgnVCM1000000b205a0aRCRD";"MIGUEL FLETA";"CALLE";"V";"11";"";"";"";"";"MADRID";"MADRID";"28037";"SIMANCAS";"SAN BLAS-CANILLEJAS";"446447";"4475886";"40.43189156564133";"-3.631374057578604";"";"";"";"/contenido/entidadesYorganismos/TemplosOtrasReligiones"; 
7064565;"Iglesia  Evangélica Bautista Pueblo Nuevo";"Templo evangélico";"";"";"Metro: Pueblo Nuevo (líneas 5, 7)    Bus: 38, 109, 113";"";"3";"http://www.madrid.es/sites/v/index.jsp?vgnextchannel=bfa48ab43d6bb410VgnVCM100000171f5a0aRCRD&vgnextoid=0304efba3c850410VgnVCM1000000b205a0aRCRD";"GUTIERRE DE CETINA";"CALLE";"V";"13";"";"";"";"";"MADRID";"MADRID";"28017";"PUEBLO NUEVO";"CIUDAD LINEAL";"445362";"4476114";"40.43387488622842";"-3.644196517698973";"";"";"";"/contenido/entidadesYorganismos/TemplosOtrasReligiones"; 
3386;"Iglesia Anglicana de San Jorge";"Templo evangélico";"";"";"Metro: Velazquez (línea 4)  Bus: 1, 19, 51, 74, 9";"";"3";"http://www.madrid.es/sites/v/index.jsp?vgnextchannel=bfa48ab43d6bb410VgnVCM100000171f5a0aRCRD&vgnextoid=48047b503a71c010VgnVCM1000000b205a0aRCRD";"NUÑEZ DE BALBOA";"CALLE";"V";"43";"";"";"";"";"MADRID";"MADRID";"28001";"RECOLETOS";"SALAMANCA";"442084";"4475343";"40.42669852639718";"-3.68277143067568";"";"";"";"/contenido/entidadesYorganismos/TemplosOtrasReligiones"; 
7066142;"Iglesia Asamblea Cristiana de Madrid";"Templo evangélico";"";"";"Metro: Miguel Hernández (línea 1)  Bus: 144, 103, 142, 143, 54, 58";"";"3";"http://www.madrid.es/sites/v/index.jsp?vgnextchannel=bfa48ab43d6bb410VgnVCM100000171f5a0aRCRD&vgnextoid=03758105e2260410VgnVCM2000000c205a0aRCRD";"ALORA";"CALLE";"V";"7";"y 9 Bajo";"";"";"";"MADRID";"MADRID";"28018";"PALOMERAS SURESTE";"PUENTE DE VALLECAS";"445650";"4470802";"40.386040079971394";"-3.64034744917085";"";"";"";"/contenido/entidadesYorganismos/TemplosOtrasReligiones"; 
11431457;"Iglesia Asambleas de Dios Ministerio Madureira";"Templo evangélico";"";"";"Metro: Carabanchel Alto (línea 11)  Bus: 108, 118";"";"3";"http://www.madrid.es/sites/v/index.jsp?vgnextchannel=bfa48ab43d6bb410VgnVCM100000171f5a0aRCRD&vgnextoid=1745b5d56867a710VgnVCM1000001d4a900aRCRD";"haya";"CALLE";"V";"2";"2";"";"";"";"MADRID";"MADRID";"28026";"ALMENDRALES";"USERA";"440917";"4470580";"40.383724492823504";"-3.6960683266163925";"";"";"";"/contenido/entidadesYorganismos/TemplosOtrasReligiones"; 
11025964;"Iglesia Bautista Calvario";"Templo evangélico";"";"";"Metro: Esperanza (línea 4)  Bus: 120, 122";"";"3";"http://www.madrid.es/sites/v/index.jsp?vgnextchannel=bfa48ab43d6bb410VgnVCM100000171f5a0aRCRD&vgnextoid=d0460d28e4e5d610VgnVCM2000001f4a900aRCRD";"PALERMO";"CALLE";"V";"28";"";"";"";"";"MADRID";"MADRID";"28043";"CANILLAS";"HORTALEZA";"444986";"4478918";"40.45911690185054";"-3.6488513828849785";"";"";"";"/contenido/entidadesYorganismos/TemplosOtrasReligiones"; 
11431523;"Iglesia Bautista de Jesús España";"Templo evangélico";"";"";"Metro: Las Musas (línea 7)  Bus: 38, E2, 167, 48, 140";"";"3";"http://www.madrid.es/sites/v/index.jsp?vgnextchannel=bfa48ab43d6bb410VgnVCM100000171f5a0aRCRD&vgnextoid=e3998000baa7a710VgnVCM1000001d4a900aRCRD";"LONGARES";"CALLE";"V";"3";"BAJA";"";"";"";"MADRID";"MADRID";"28022";"ROSAS";"SAN BLAS-CANILLEJAS";"448294";"4475910";"40.43222866060572";"-3.6095941110775787";"";"";"";"/contenido/entidadesYorganismos/TemplosOtrasReligiones"; 
7064915;"Iglesia Bautista de Vallecas";"Templo evangélico";"";"";"Metro: Nueva Numancia (línea 1)    Bus: 136, 54, 57, 58";"";"3";"http://www.madrid.es/sites/v/index.jsp?vgnextchannel=bfa48ab43d6bb410VgnVCM100000171f5a0aRCRD&vgnextoid=19bdb607bec50410VgnVCM2000000c205a0aRCRD";"SAN VIRGILIO";"CALLE";"V";"2";"";"";"";"y 4";"MADRID";"MADRID";"28038";"NUMANCIA";"PUENTE DE VALLECAS";"443731";"4471883";"40.395652155665495";"-3.6630343908266862";"";"";"";"/contenido/entidadesYorganismos/TemplosOtrasReligiones"; 
3385;"Iglesia Bautista El Buen Pastor";"Templo evangélico";"";"";"Metro: Prosperidad (línea 4)  Bus: 9, 73";"";"3";"http://www.madrid.es/sites/v/index.jsp?vgnextchannel=bfa48ab43d6bb410VgnVCM100000171f5a0aRCRD&vgnextoid=27ff13db5b71c010VgnVCM1000000b205a0aRCRD";"GETAFE";"PLAZA";"V";"1";"";"";"";"";"MADRID";"MADRID";"28002";"PROSPERIDAD";"CHAMARTIN";"442995";"4477283";"40.444238011956884";"-3.6721947831541484";"";"";"";"/contenido/entidadesYorganismos/TemplosOtrasReligiones"; 
11026103;"Iglesia Bautista Emanuel de Madrid";"Templo evangélico";"";"";"Bus: 11, 114, 115, 200";"";"3";"http://www.madrid.es/sites/v/index.jsp?vgnextchannel=bfa48ab43d6bb410VgnVCM100000171f5a0aRCRD&vgnextoid=0b8db608d026d610VgnVCM2000001f4a900aRCRD";"HERNANDEZ DE TEJADA";"CALLE";"V";"4";"";"";"";"";"MADRID";"MADRID";"28027";"SAN PASCUAL";"CIUDAD LINEAL";"444755";"4477556";"40.44683079932284";"-3.6514595783618526";"";"";"";"/contenido/entidadesYorganismos/TemplosOtrasReligiones"; 
11026113;"Iglesia Bíblica de Barajas";"Templo evangélico";"";"";"Metro: Barajas (línea 8)  Bus: 105, 115, 166";"";"3";"http://www.madrid.es/sites/v/index.jsp?vgnextchannel=bfa48ab43d6bb410VgnVCM100000171f5a0aRCRD&vgnextoid=082eb608d026d610VgnVCM2000001f4a900aRCRD";"CANAL DE SUEZ";"CALLE";"V";"15";"";"";"";"";"MADRID";"MADRID";"28042";"CASCO H.BARAJAS";"BARAJAS";"450827";"4480344";"40.47232582672411";"-3.580075615330767";"";"";"";"/contenido/entidadesYorganismos/TemplosOtrasReligiones"; 
7064593;"Iglesia CENFOL España";"Templo evangélico";"";"";"Metro: Pinar del Rey (línea 8)  Bus: 73";"";"3";"http://www.madrid.es/sites/v/index.jsp?vgnextchannel=bfa48ab43d6bb410VgnVCM100000171f5a0aRCRD&vgnextoid=beddb8d07d850410VgnVCM1000000b205a0aRCRD";"ALEJANDRO VILLEGAS";"CALLE";"V";"34";"local";"";"";"entrada por calle Manzanar";"MADRID";"MADRID";"28043";"CANILLAS";"HORTALEZA";"444995";"4479591";"40.46517332828151";"-3.6488243746464377";"";"";"";"/contenido/entidadesYorganismos/TemplosOtrasReligiones"; 
7064594;"Iglesia Centro Cristiano Adonay";"Templo evangélico";"";"";"Metro: Cruce Villaverde (línea 3)    Bus: 116, 18, 23,123, 85, 59, 79";"";"3";"http://www.madrid.es/sites/v/index.jsp?vgnextchannel=bfa48ab43d6bb410VgnVCM100000171f5a0aRCRD&vgnextoid=e65fb8d07d850410VgnVCM1000000b205a0aRCRD";"MARIA MARTINEZ OVIOL";"CALLE";"V";"17";"";"B";"";"";"MADRID";"MADRID";"28021";"LOS ROSALES";"VILLAVERDE";"441298";"4466846";"40.35010688886286";"-3.691253820762234";"";"";"";"/contenido/entidadesYorganismos/TemplosOtrasReligiones"; 
7064614;"Iglesia Comunidad Cristiana de Fe";"";"";"";"Metro: Plaza Castilla (líneas 1, 9 y 10)  Bus: 5, 66, 70, 107, 129, 174  Renfe: Chamartín";"";"3";"http://www.madrid.es/sites/v/index.jsp?vgnextchannel=bfa48ab43d6bb410VgnVCM100000171f5a0aRCRD&vgnextoid=5c77b8d07d850410VgnVCM1000000b205a0aRCRD";"MANUEL FERRERO";"CALLE";"V";"5";"";"Local estudio Danza Pasión Madrid";"";"";"MADRID";"MADRID";"28036";"CASTILLA";"CHAMARTIN";"441967";"4479959";"40.468282503897264";"-3.6845607169672094";"";"";"";"/contenido/entidadesYorganismos/TemplosOtrasReligiones"; 
18298;"Iglesia Cristiana Adventista del Séptimo Día. Madrid Alenza";"";"";"";"Metro: Ríos Rosas (línea 1), Cuatro Caminos (líneas 1, 2, 6)  Bus: 45, 12, 149, 3, 37  Bicimad: Estación 130 (calle Santa Engracia, 127)";"";"3";"http://www.madrid.es/sites/v/index.jsp?vgnextchannel=bfa48ab43d6bb410VgnVCM100000171f5a0aRCRD&vgnextoid=435f6f065851c010VgnVCM2000000c205a0aRCRD";"ALENZA";"CALLE";"V";"6";"Baja";"";"";"";"MADRID";"MADRID";"28003";"RIOS ROSAS";"CHAMBERI";"440594";"4477227";"40.44356545097694";"-3.7004998266858435";"917 377 737";"";"info@aventista.es";"/contenido/entidadesYorganismos/TemplosOtrasReligiones"; 
190017;"Iglesia Cristiana Adventista del Séptimo Día. Madrid Aluche";"";"";"";"Metro: Eugenía de Montijo (línea 5)  Bus: 31";"";"3";"http://www.madrid.es/sites/v/index.jsp?vgnextchannel=bfa48ab43d6bb410VgnVCM100000171f5a0aRCRD&vgnextoid=08470bf21677f010VgnVCM1000000b205a0aRCRD";"LOS YEBENES";"CALLE";"V";"255";"";"";"";"";"MADRID";"MADRID";"28047";"ALUCHE";"LATINA";"436212";"4471257";"40.38946974102784";"-3.7515803449309417";"917 377 737";"";"info@aventista.es";"/contenido/entidadesYorganismos/TemplosOtrasReligiones"; 
190024;"Iglesia Cristiana Adventista del Séptimo Día. Madrid Calatrava";"";"";"";"Bus: 108, 118.";"";"3";"http://www.madrid.es/sites/v/index.jsp?vgnextchannel=bfa48ab43d6bb410VgnVCM100000171f5a0aRCRD&vgnextoid=3a870bf21677f010VgnVCM1000000b205a0aRCRD";"SECOYA";"CALLE";"V";"19";"";"";"";"POLIGONO INDUSTRIAL AGUACATE";"MADRID";"MADRID";"28044";"BUENAVISTA";"CARABANCHEL";"436758";"4469009";"40.36926045846844";"-3.744912867450059";"917 377 737";"";"info@aventista.es";"/contenido/entidadesYorganismos/TemplosOtrasReligiones"; 
8353139;"Iglesia Cristiana Adventista del Séptimo Día. Madrid Eben-Ezer";"";"";"";"Metro: Avenida de Guadalajara (línea 2)  Bus: 4";"";"3";"http://www.madrid.es/sites/v/index.jsp?vgnextchannel=bfa48ab43d6bb410VgnVCM100000171f5a0aRCRD&vgnextoid=925691f81c421510VgnVCM2000000c205a0aRCRD";"RUSIA";"CALLE";"V";"11";"";"";"";"";"MADRID";"MADRID";"28022";"ROSAS";"SAN BLAS-CANILLEJAS";"448247";"4475023";"40.42423100660826";"-3.610095282640812";"917 377 737";"";"info@aventista.es";"/contenido/entidadesYorganismos/TemplosOtrasReligiones"; 
190046;"Iglesia Cristiana Adventista del Séptimo Día. Madrid Efes";"";"";"";"Metro: Urgel (línea 5)  Bus: 118";"";"3";"http://www.madrid.es/sites/v/index.jsp?vgnextchannel=bfa48ab43d6bb410VgnVCM100000171f5a0aRCRD&vgnextoid=5cb70bf21677f010VgnVCM1000000b205a0aRCRD";"ALEJANDRO SANCHEZ";"CALLE";"V";"49";"";"";"";"";"MADRID";"MADRID";"28019";"OPAÑEL";"CARABANCHEL";"438716";"4471312";"40.390153190373084";"-3.7220850553963856";"917 377 737";"";"info@aventista.es";"/contenido/entidadesYorganismos/TemplosOtrasReligiones"; 
11417679;"Iglesia Cristiana Adventista del Séptimo Día. Madrid Emaus";"";"";"";"Metro: Avenida de Guadalajara (línea 2)  Bus: 4";"";"3";"http://www.madrid.es/sites/v/index.jsp?vgnextchannel=bfa48ab43d6bb410VgnVCM100000171f5a0aRCRD&vgnextoid=f4aaeeb2dcd1a710VgnVCM1000001d4a900aRCRD";"RUSIA";"CALLE";"V";"11";"";"";"";"";"MADRID";"MADRID";"28022";"ROSAS";"SAN BLAS-CANILLEJAS";"448247";"4475023";"40.42423100660826";"-3.610095282640812";"917 377 737";"";"info@aventista.es";"/contenido/entidadesYorganismos/TemplosOtrasReligiones"; 
6893233;"Iglesia Cristiana Adventista del Séptimo Día. Madrid Grupo Brasileños";"";"";"";"Metro: Urgel (línea 5)  Bus: 118, 119, 34, 35";"";"3";"http://www.madrid.es/sites/v/index.jsp?vgnextchannel=bfa48ab43d6bb410VgnVCM100000171f5a0aRCRD&vgnextoid=f1d689f2b4eed310VgnVCM2000000c205a0aRCRD";"MARQUESA DE ARG&amp;Uuml;ESO";"CALLE";"V";"24";"";"";"";"";"MADRID";"MADRID";"28019";"OPAÑEL";"CARABANCHEL";"438564";"4471455";"40.391431883192325";"-3.7238698693478747";"917 377 737";"";"info@aventista.es";"/contenido/entidadesYorganismos/TemplosOtrasReligiones"; 
8352971;"Iglesia Cristiana Adventista del Séptimo Día. Madrid Horeb";"";"";"";"Metro: Carpetana (línea 6)  Bus: 17, 25";"";"3";"http://www.madrid.es/sites/v/index.jsp?vgnextchannel=bfa48ab43d6bb410VgnVCM100000171f5a0aRCRD&vgnextoid=384fcef44b421510VgnVCM2000000c205a0aRCRD";"DOCTOR ZOFIO";"CALLE";"V";"4";"";"";"";"";"MADRID";"MADRID";"28019";"SAN ISIDRO";"CARABANCHEL";"437355";"4471841";"40.3948228497844";"-3.738156333879843";"917 377 737";"";"info@aventista.es";"/contenido/entidadesYorganismos/TemplosOtrasReligiones"; 
190054;"Iglesia Cristiana Adventista del Séptimo Día. Madrid Resurrección";"";"";"";"Metro: Avenida de Guadalajara (línea 2)  Bus: 153, 38";"";"3";"http://www.madrid.es/sites/v/index.jsp?vgnextchannel=bfa48ab43d6bb410VgnVCM100000171f5a0aRCRD&vgnextoid=23e70bf21677f010VgnVCM1000000b205a0aRCRD";"AUSTRIA";"CALLE";"V";"2";"";"";"";"";"MADRID";"MADRID";"28022";"ROSAS";"SAN BLAS-CANILLEJAS";"448422";"4475079";"40.424737348819995";"-3.60803688991874";"917 377 737";"";"info@aventista.es";"/contenido/entidadesYorganismos/TemplosOtrasReligiones"; 
190014;"Iglesia Cristiana Adventista del Séptimo Día. Madrid Vallecas";"";"";"";"Bus: 103, 111, 144  Cercanías RENFE: Asamblea de Madrid-Entrevías (líneas C2, C7)";"";"3";"http://www.madrid.es/sites/v/index.jsp?vgnextchannel=bfa48ab43d6bb410VgnVCM100000171f5a0aRCRD&vgnextoid=26f70bf21677f010VgnVCM1000000b205a0aRCRD";"DOCTOR BELLIDO";"CALLE";"V";"13";"";"";"";"";"MADRID";"MADRID";"28018";"SAN DIEGO";"PUENTE DE VALLECAS";"443352";"4470675";"40.38473396152094";"-3.6673969388303247";"917 377 737";"";"info@aventista.es";"/contenido/entidadesYorganismos/TemplosOtrasReligiones"; 
190059;"Iglesia Cristiana Adventista del Séptimo Día. Madrid Ventas";"";"";"";"Metro: Quintana (línea 5), La Elipa (línea 2)  Bus: 113, 106, 28";"";"3";"http://www.madrid.es/sites/v/index.jsp?vgnextchannel=bfa48ab43d6bb410VgnVCM100000171f5a0aRCRD&vgnextoid=0a08d5bfd677f010VgnVCM1000000b205a0aRCRD";"HERMANOS GOMEZ";"CALLE";"V";"32";"";"local";"";"";"MADRID";"MADRID";"28017";"VENTAS";"CIUDAD LINEAL";"444876";"4475715";"40.430239463904734";"-3.6498796531677073";"917 377 737";"";"info@aventista.es";"/contenido/entidadesYorganismos/TemplosOtrasReligiones"; 
190019;"Iglesia Cristiana Adventista del Séptimo Día. Proyecto Cero";"";"";"";"Metro: Puente de Vallecas (línea 1). Bus: 58, 111, 8, 113, 141, 24, 54, 57.";"";"3";"http://www.madrid.es/sites/v/index.jsp?vgnextchannel=bfa48ab43d6bb410VgnVCM100000171f5a0aRCRD&vgnextoid=ed570bf21677f010VgnVCM1000000b205a0aRCRD";"";"";"";"";"";"";"";"";"MADRID";"MADRID";"";"ADELFAS";"";"";"";"";"";"917 377 737";"";"info@aventista.es";"/contenido/entidadesYorganismos/TemplosOtrasReligiones"; 
7063730;"Iglesia Cristiana Evangélica en Hortaleza (Eben Ezer)";"Templo evangélico";"";"";"Metro: Parque de Santa María (línea 4)  Bus: 107";"";"3";"http://www.madrid.es/sites/v/index.jsp?vgnextchannel=bfa48ab43d6bb410VgnVCM100000171f5a0aRCRD&vgnextoid=924b7b05a8350410VgnVCM2000000c205a0aRCRD";"SANTA VIRGILIA";"CALLE";"V";"5";"";"";"";"POSTERIOR";"MADRID";"MADRID";"28033";"PINAR DEL REY";"HORTALEZA";"445441";"4481015";"40.47803083728167";"-3.6436863685291523";"";"";"";"/contenido/entidadesYorganismos/TemplosOtrasReligiones"; 
7064620;"Iglesia Cristiana Hosanna";"Templo evangélico";"";"";"Metro: Vista Alegre (línea 5)    Bus: 55";"";"3";"http://www.madrid.es/sites/v/index.jsp?vgnextchannel=bfa48ab43d6bb410VgnVCM100000171f5a0aRCRD&vgnextoid=149a5bddd0950410VgnVCM1000000b205a0aRCRD";"ALFARO";"CALLE";"V";"34";"";"";"";"- 36";"MADRID";"MADRID";"28025";"VISTA ALEGRE";"CARABANCHEL";"437449";"4471316";"40.39008603694386";"-3.737012505590283";"";"";"";"/contenido/entidadesYorganismos/TemplosOtrasReligiones"; 
11026241;"Iglesia Cristiana Reconcíliate con Dios";"Templo evangélico";"";"";"Metro: Carabanchel Alto (línea 11)  Bus: 108, 118";"";"3";"http://www.madrid.es/sites/v/index.jsp?vgnextchannel=bfa48ab43d6bb410VgnVCM100000171f5a0aRCRD&vgnextoid=82efb608d026d610VgnVCM2000001f4a900aRCRD";"SECOYA";"CALLE";"V";"18";"2";"";"";"";"MADRID";"MADRID";"28044";"BUENAVISTA";"CARABANCHEL";"436762";"4469033";"40.36948386820239";"-3.744863153558721";"";"";"";"/contenido/entidadesYorganismos/TemplosOtrasReligiones"; 
11026245;"Iglesia Cristiana Redimida de Dios";"Templo evangélico";"";"";"Cercanías: San Cristóbal Industrial (C3)  Bus: T41, 79";"";"3";"http://www.madrid.es/sites/v/index.jsp?vgnextchannel=bfa48ab43d6bb410VgnVCM100000171f5a0aRCRD&vgnextoid=ab30b608d026d610VgnVCM2000001f4a900aRCRD";"RESINA";"CALLE";"V";"29";"";"";"";"";"MADRID";"MADRID";"28021";"VILLAVERDE ALTO C.H.";"VILLAVERDE";"440346";"4465251";"40.33567575572324";"-3.702293202148939";"";"";"";"/contenido/entidadesYorganismos/TemplosOtrasReligiones"; 
7064624;"Iglesia Cristiana Reformada";"Templo evangelico";"";"";"Metro: Barrio de la Concepción (línea 7)    Bus: 21  Aparcamiento: Verdaguer y García (44), calle Verdaguer y García";"";"3";"http://www.madrid.es/sites/v/index.jsp?vgnextchannel=bfa48ab43d6bb410VgnVCM100000171f5a0aRCRD&vgnextoid=a5cc5bddd0950410VgnVCM1000000b205a0aRCRD";"CESAR GONZÁLEZ RUANO";"CALLE";"V";"25";"";"";"";"";"MADRID";"MADRID";"28027";"SAN PASCUAL";"CIUDAD LINEAL";"444604";"4476786";"40.439878546069856";"-3.6531796217016983";"";"";"";"/contenido/entidadesYorganismos/TemplosOtrasReligiones"; 
7064802;"Iglesia Cristiana Shalom Adonai";"Templo evangélico";"";"";"Metro: Barrio del Pilar (línea 9)    Bus: 128, 132, 137, 49, 83, 147";"";"3";"http://www.madrid.es/sites/v/index.jsp?vgnextchannel=bfa48ab43d6bb410VgnVCM100000171f5a0aRCRD&vgnextoid=98296bbcdbc50410VgnVCM1000000b205a0aRCRD";"MONDARIZ";"PLAZA";"V";"10";"";"";"";"Local 5";"MADRID";"MADRID";"28029";"EL PILAR";"FUENCARRAL-EL PARDO";"440241";"4481063";"40.478096305847544";"-3.7050349888320526";"";"";"";"/contenido/entidadesYorganismos/TemplosOtrasReligiones"; 
7065928;"Iglesia Cristiana Verbo";"";"";"";"Metro:  Torre Arias (línea 5)  Bus:  28, 48, 140";"";"3";"http://www.madrid.es/sites/v/index.jsp?vgnextchannel=bfa48ab43d6bb410VgnVCM100000171f5a0aRCRD&vgnextoid=003ff181df160410VgnVCM2000000c205a0aRCRD";"CIRCE";"CALLE";"V";"32";"";"";"";"";"MADRID";"MADRID";"28022";"ROSAS";"SAN BLAS-CANILLEJAS";"448377";"4475092";"40.42486074067447";"-3.608556691010076";"";"";"";"/contenido/entidadesYorganismos/TemplosOtrasReligiones"; 
11431563;"Iglesia Cuerpo de Cristo, Avelino";"Templo evangélico";"";"";"Bus: 24, 102";"";"3";"http://www.madrid.es/sites/v/index.jsp?vgnextchannel=bfa48ab43d6bb410VgnVCM100000171f5a0aRCRD&vgnextoid=53de8000baa7a710VgnVCM1000001d4a900aRCRD";"AVELINO FERNANDEZ DE LA POZA";"CALLE";"V";"4";"";"";"";"";"MADRID";"MADRID";"28053";"ENTREVIAS";"PUENTE DE VALLECAS";"442859";"4470671";"40.38467637366071";"-3.6732010597964244";"";"";"";"/contenido/entidadesYorganismos/TemplosOtrasReligiones"; 
7064883;"Iglesia Cuerpo de Cristo, Don Pedro";"Templo evangélico";"";"";"Metro: La Latina (línea 5)  Bus: 60, SE712";"";"3";"http://www.madrid.es/sites/v/index.jsp?vgnextchannel=bfa48ab43d6bb410VgnVCM100000171f5a0aRCRD&vgnextoid=a8319bd56dc50410VgnVCM2000000c205a0aRCRD";"DON PEDRO";"CALLE";"V";"10";"";"";"";"";"MADRID";"MADRID";"28005";"PALACIO";"CENTRO";"439525";"4473691";"40.41164356061595";"-3.7127680071804763";"";"";"";"/contenido/entidadesYorganismos/TemplosOtrasReligiones"; 
11431568;"Iglesia Cuerpo de Cristo, General";"Templo evangélico";"";"";"Bus: 23, 55, 60";"";"3";"http://www.madrid.es/sites/v/index.jsp?vgnextchannel=bfa48ab43d6bb410VgnVCM100000171f5a0aRCRD&vgnextoid=c7908000baa7a710VgnVCM1000001d4a900aRCRD";"GENERAL SERRANO ORIVE";"CALLE";"V";"3";"";"";"";"";"MADRID";"MADRID";"28019";"COMILLAS";"CARABANCHEL";"439847";"4471678";"40.393539365726255";"-3.708776151479965";"";"";"";"/contenido/entidadesYorganismos/TemplosOtrasReligiones"; 
7064917;"Iglesia de Cristo - Madrid";"Templo evangélico";"";"";"Metro: Alvarado (línea 1)  Bus: 124, 128, 3, 64, 66, 43";"";"3";"http://www.madrid.es/sites/v/index.jsp?vgnextchannel=bfa48ab43d6bb410VgnVCM100000171f5a0aRCRD&vgnextoid=4fb3b607bec50410VgnVCM2000000c205a0aRCRD";"TERUEL";"CALLE";"V";"25";"";"";"";"";"MADRID";"MADRID";"28020";"CUATRO CAMINOS";"TETUAN";"440553";"4478100";"40.45142687862351";"-3.7010649675352028";"";"";"";"/contenido/entidadesYorganismos/TemplosOtrasReligiones"; 
11026266;"Iglesia de Dios Pentecostal Movimiento Internacional de Madrid";"Templo evangélico";"";"";"Metro: Villaverde Alto (línea 3)  Bus: 79  Cercanías: Villaverde Alto (C4, C5)";"";"3";"http://www.madrid.es/sites/v/index.jsp?vgnextchannel=bfa48ab43d6bb410VgnVCM100000171f5a0aRCRD&vgnextoid=6621b608d026d610VgnVCM2000001f4a900aRCRD";"GOMEZ ACEBO";"CALLEJON";"V";"14";"";"";"";"";"MADRID";"MADRID";"28021";"VILLAVERDE ALTO C.H.";"VILLAVERDE";"439834";"4466013";"40.34250052860725";"-3.7083992189259987";"";"";"";"/contenido/entidadesYorganismos/TemplosOtrasReligiones"; 
7064921;"Iglesia de Dios (Verbo de Dios)";"Templo evangélico";"";"";"Bus: 130, T31";"";"3";"http://www.madrid.es/sites/v/index.jsp?vgnextchannel=bfa48ab43d6bb410VgnVCM100000171f5a0aRCRD&vgnextoid=646b0ac0dfc50410VgnVCM2000000c205a0aRCRD";"PUERTO DE POZAZAL";"CALLE";"V";"25";"";"";"";"A";"MADRID";"MADRID";"28031";"CASCO H.VALLECAS";"VILLA DE VALLECAS";"446484";"4470075";"40.37954477665532";"-3.6304610133031003";"";"";"";"/contenido/entidadesYorganismos/TemplosOtrasReligiones"; 
7065029;"Iglesia de Los Elegidos de Dios";"Templo evangélico";"";"";"Metro: Abrantes (línea 11)    Bus: 47, 108, 116, E1";"";"3";"http://www.madrid.es/sites/v/index.jsp?vgnextchannel=bfa48ab43d6bb410VgnVCM100000171f5a0aRCRD&vgnextoid=fdea3ddd32d50410VgnVCM2000000c205a0aRCRD";"FARO";"CALLE";"V";"8";"";"";"";"Local 4, Posterior";"MADRID";"MADRID";"28025";"ABRANTES";"CARABANCHEL";"438335";"4470321";"40.38119767358174";"-3.7264778892367456";"";"";"";"/contenido/entidadesYorganismos/TemplosOtrasReligiones"; 
147971;"Iglesia de Scientology de España";"";"";"";"Metro: Sol (línea 1, 2, 3), Sevilla (línea 2).  Bus: 002, M1, 53   Cercanías: Sol (C3, C4)   Aparcamiento: Cortes (46), Plaza de las Cortes";"";"3";"http://www.madrid.es/sites/v/index.jsp?vgnextchannel=bfa48ab43d6bb410VgnVCM100000171f5a0aRCRD&vgnextoid=0606ac2e6481c010VgnVCM1000000b205a0aRCRD";"SANTA CATALINA";"CALLE";"V";"7";"";"";"";"esquina calle Prado";"MADRID";"MADRID";"28014";"CORTES";"CENTRO";"440802";"4474103";"40.41544685773238";"-3.6977564880686664";"";"";"";"/contenido/entidadesYorganismos/TemplosOtrasReligiones"; 
7063734;"Iglesia Dios es Amor - Unión Cristiana";"Templo evangélico";"";"";"Metro: Pueblo Nuevo (líneas 5, 7)  Bus: 48, 146  Aparcamiento: Corazón de María II (3), calle Corazón de María (final calle)";"";"3";"http://www.madrid.es/sites/v/index.jsp?vgnextchannel=bfa48ab43d6bb410VgnVCM100000171f5a0aRCRD&vgnextoid=dd257b05a8350410VgnVCM2000000c205a0aRCRD";"PRUDENCIO ALVARO";"CALLE";"V";"46";"";"";"";"";"MADRID";"MADRID";"28027";"QUINTANA";"CIUDAD LINEAL";"445359";"4476606";"40.43829788787747";"-3.644274105325617";"";"";"";"/contenido/entidadesYorganismos/TemplosOtrasReligiones"; 
18306;"Iglesia Ejército de Salvación Madrid Central";"Templo evangélico";"";"";"Metro: Manuel Becerra (líneas, 2 y 6), O'Donnell (línea 6)  Bus: 143, 156, 2, 56, 71, C1, 30, C2, 12";"";"3";"http://www.madrid.es/sites/v/index.jsp?vgnextchannel=bfa48ab43d6bb410VgnVCM100000171f5a0aRCRD&vgnextoid=8d9f6f065851c010VgnVCM2000000c205a0aRCRD";"HERMOSILLA";"CALLE";"V";"126";"";"";"";"Local 4";"MADRID";"MADRID";"28028";"FUENTE DEL BERRO";"SALAMANCA";"443347";"4475195";"40.42545230198005";"-3.6678581814924507";"";"";"";"/contenido/entidadesYorganismos/TemplosOtrasReligiones"; 
11026824;"Iglesia Ejército de Salvación Palomeras";"Templo evangélico";"";"";"Metro: Miguel Hernández (línea 1)  Bus: 103, 142, 143, 54, 58, 144";"";"3";"http://www.madrid.es/sites/v/index.jsp?vgnextchannel=bfa48ab43d6bb410VgnVCM100000171f5a0aRCRD&vgnextoid=68449283b726d610VgnVCM2000001f4a900aRCRD";"RAFAEL ALBERTI";"AVENIDA";"V";"18";"";"";"";"bis";"MADRID";"MADRID";"28038";"PALOMERAS SURESTE";"PUENTE DE VALLECAS";"445663";"4471069";"40.388453004338494";"-3.6402017057531606";"";"";"";"/contenido/entidadesYorganismos/TemplosOtrasReligiones"; 
7065093;"Iglesia El Buen Pastor de Vallecas";"Templo evangélico";"";"";"Bus: 141";"";"3";"http://www.madrid.es/sites/v/index.jsp?vgnextchannel=bfa48ab43d6bb410VgnVCM100000171f5a0aRCRD&vgnextoid=7d373ddd32d50410VgnVCM2000000c205a0aRCRD";"VALDERRIBAS";"CAMINO";"V";"96";"";"";"";"Nave";"MADRID";"MADRID";"28038";"NUMANCIA";"PUENTE DE VALLECAS";"443944";"4472238";"40.398863439810455";"-3.660560405682932";"";"";"";"/contenido/entidadesYorganismos/TemplosOtrasReligiones"; 
11431675;"Iglesia Elan";"Templo evangélico";"";"";"Bus: 4";"";"3";"http://www.madrid.es/sites/v/index.jsp?vgnextchannel=bfa48ab43d6bb410VgnVCM100000171f5a0aRCRD&vgnextoid=36b58000baa7a710VgnVCM1000001d4a900aRCRD";"EZCARAY";"CALLE";"V";"20";"2 C";"";"";"";"MADRID";"MADRID";"28032";"CASCO H.VICALVARO";"VICALVARO";"447994";"4473468";"40.410210854887914";"-3.61293716036795";"";"";"";"/contenido/entidadesYorganismos/TemplosOtrasReligiones"; 
7065435;"Iglesia Española Reformada Episcopal";"Templo evangélico";"";"";"";"Metro: Alonso Martínez (líneas 4, 5 y 10), Tribunal (líneas 1 y 10)  Bus: 37, 40, 149, 3  Bicimad: Estación 54 (calle Barceló, 7)  Aparcamiento: Barceló (69), calle Barceló";"3";"http://www.madrid.es/sites/v/index.jsp?vgnextchannel=bfa48ab43d6bb410VgnVCM100000171f5a0aRCRD&vgnextoid=37d53bf7d7d50410VgnVCM2000000c205a0aRCRD";"BENEFICENCIA";"CALLE";"V";"18";"";"";"";"";"MADRID";"MADRID";"28004";"JUSTICIA";"CENTRO";"440734";"4475314";"40.42635120982088";"-3.698682579292043";"";"";"";"/contenido/entidadesYorganismos/TemplosOtrasReligiones"; 
7065000;"Iglesia Evangélica Agua de Vida Vaguada";"Templo evangélico";"";"";"Metro: Peñagrande (línea 7)  Bus: 83";"";"3";"http://www.madrid.es/sites/v/index.jsp?vgnextchannel=bfa48ab43d6bb410VgnVCM100000171f5a0aRCRD&vgnextoid=3c33c91fc0d50410VgnVCM2000000c205a0aRCRD";"PUERTO DE MASPALOMAS";"CALLE";"V";"22";"";"";"";"Posterior";"MADRID";"MADRID";"28029";"EL PILAR";"FUENCARRAL-EL PARDO";"439497";"4481186";"40.4791594681295";"-3.7138237216851797";"";"";"";"/contenido/entidadesYorganismos/TemplosOtrasReligiones"; 
7064876;"Iglesia evangélica Asociación Betel";"Templo evangélico";"";"";"Metro: San Francisco (línea 11)  Bus: 108, 118, 121, 131, 47";"";"3";"http://www.madrid.es/sites/v/index.jsp?vgnextchannel=bfa48ab43d6bb410VgnVCM100000171f5a0aRCRD&vgnextoid=335d9bd56dc50410VgnVCM2000000c205a0aRCRD";"ANTONIA RODRIGUEZ SACRISTAN";"CALLE";"V";"8";"";"";"";"";"MADRID";"MADRID";"28044";"BUENAVISTA";"CARABANCHEL";"436747";"4469402";"40.372800292475574";"-3.745073767335671";"";"";"";"/contenido/entidadesYorganismos/TemplosOtrasReligiones"; 
7065706;"Iglesia Evangélica Asociación Centros Tahor";"Templo evangélico";"";"";"Metro: Estrecho, Alvarado (línea 1)  Bus: 124, 128, 3, 64, 66, 53";"";"3";"http://www.madrid.es/sites/v/index.jsp?vgnextchannel=bfa48ab43d6bb410VgnVCM100000171f5a0aRCRD&vgnextoid=61a794d12cd50410VgnVCM2000000c205a0aRCRD";"TERUEL";"CALLE";"V";"25";"";"";"";"";"MADRID";"MADRID";"28020";"CUATRO CAMINOS";"TETUAN";"440551";"4478101";"40.451446329396504";"-3.7010846337104173";"";"";"";"/contenido/entidadesYorganismos/TemplosOtrasReligiones"; 
11026848;"Iglesia Evangélica Asociación Club Metas";"Templo evangélico";"";"";"Metro: Pinar del Rey (línea 8)  Bus: 87, 72, 9";"";"3";"http://www.madrid.es/sites/v/index.jsp?vgnextchannel=bfa48ab43d6bb410VgnVCM100000171f5a0aRCRD&vgnextoid=04d59283b726d610VgnVCM2000001f4a900aRCRD";"GRAN VIA DE HORTALEZA";"AVENIDA";"V";"30";"";"";"";"";"MADRID";"MADRID";"28043";"CANILLAS";"HORTALEZA";"444577";"4479753";"40.46660577055004";"-3.6537495353492995";"";"";"";"/contenido/entidadesYorganismos/TemplosOtrasReligiones"; 
7065980;"Iglesia evangélica Asociación Darse";"Templo evanglélico";"";"";"Metro: Vista Alegre (línea 5)  Bus: 34, 35";"";"3";"http://www.madrid.es/sites/v/index.jsp?vgnextchannel=bfa48ab43d6bb410VgnVCM100000171f5a0aRCRD&vgnextoid=474204a5d0260410VgnVCM2000000c205a0aRCRD";"CASTROJERIZ";"CALLE";"V";"5";"";"";"";"";"MADRID";"MADRID";"28025";"VISTA ALEGRE";"CARABANCHEL";"437305";"4471004";"40.38728031283857";"-3.7386583591543534";"";"";"";"/contenido/entidadesYorganismos/TemplosOtrasReligiones"; 
11026250;"Iglesia evangélica Asociación de Educadores Evangélicos de Madrid";"Templo evangélico";"";"";"Metro: Estrecho (línea 1) / Francos Rodríguez (línea 7)  Bus: 127, 44";"";"3";"http://www.madrid.es/sites/v/index.jsp?vgnextchannel=bfa48ab43d6bb410VgnVCM100000171f5a0aRCRD&vgnextoid=e880b608d026d610VgnVCM2000001f4a900aRCRD";"MARIA PEDRAZA";"CALLE";"V";"11";"";"";"";"";"MADRID";"MADRID";"28039";"BELLAS VISTAS";"TETUAN";"439849";"4478318";"40.453348645022764";"-3.7093869921748412";"";"";"";"/contenido/entidadesYorganismos/TemplosOtrasReligiones"; 
7065383;"Iglesia Evangélica Asociación Evangelización Mundial para Cristo";"Templo evangélico";"";"";"Bus: 167, 48  Metro: San Blas (línea 7)";"";"3";"http://www.madrid.es/sites/v/index.jsp?vgnextchannel=bfa48ab43d6bb410VgnVCM100000171f5a0aRCRD&vgnextoid=2b96691af6d50410VgnVCM2000000c205a0aRCRD";"CANILLEJAS A VICALVARO";"AVENIDA";"V";"131";"";"";"";"";"MADRID";"MADRID";"28022";"ROSAS";"SAN BLAS-CANILLEJAS";"448207";"4475321";"40.426919386996715";"-3.6105786335561914";"";"";"";"/contenido/entidadesYorganismos/TemplosOtrasReligiones"; 
11028433;"Iglesia evangélica Asociación Fietgratia Ong";"Templo evangélico";"";"";"Metro: Suanzes (línea 5)  Bus: 104, 77";"";"3";"http://www.madrid.es/sites/v/index.jsp?vgnextchannel=bfa48ab43d6bb410VgnVCM100000171f5a0aRCRD&vgnextoid=206aaf9c53d6d610VgnVCM1000001d4a900aRCRD";"RUFINO GONZALEZ";"CALLE";"V";"13";"1ª";"";"";"";"MADRID";"MADRID";"28037";"SIMANCAS";"SAN BLAS-CANILLEJAS";"446797";"4476756";"40.43975530378643";"-3.627318887810539";"";"";"";"/contenido/entidadesYorganismos/TemplosOtrasReligiones"; 
7065947;"Iglesia evangélica Asociación Fuente de Vida de la Sierra";"Templo evangélico";"";"";"Metro: Urgel (línea 5)  Bus: 119";"";"3";"http://www.madrid.es/sites/v/index.jsp?vgnextchannel=bfa48ab43d6bb410VgnVCM100000171f5a0aRCRD&vgnextoid=c944f181df160410VgnVCM2000000c205a0aRCRD";"TERCIO";"CALLE";"V";"8";"1ª";"";"";"";"MADRID";"MADRID";"28019";"SAN ISIDRO";"CARABANCHEL";"438226";"4471682";"40.39345136918462";"-3.7278719881651243";"";"";"";"/contenido/entidadesYorganismos/TemplosOtrasReligiones"; 
11430960;"Iglesia evangélica Asociación Proyecto Ayuda en la Calle PAC-ONG";"Templo evangélico";"";"";"Metro: Lucero (línea 6)  Bus: 31, 138";"";"3";"http://www.madrid.es/sites/v/index.jsp?vgnextchannel=bfa48ab43d6bb410VgnVCM100000171f5a0aRCRD&vgnextoid=78b9eafcd367a710VgnVCM1000001d4a900aRCRD";"VICENTE CAMARON";"CALLE";"V";"41";"3ª";"";"";"";"MADRID";"MADRID";"28011";"PUERTA DEL ANGEL";"LATINA";"437152";"4473095";"40.40610493450374";"-3.740671238932678";"";"";"";"/contenido/entidadesYorganismos/TemplosOtrasReligiones"; 
11026948;"Iglesia Evangélica Avivamiento Emmanuel España";"Templo evangélico";"";"";"Metro: Oporto (línea 5 y 6)  Bus: 247";"";"3";"http://www.madrid.es/sites/v/index.jsp?vgnextchannel=bfa48ab43d6bb410VgnVCM100000171f5a0aRCRD&vgnextoid=5e4b8afbee26d610VgnVCM2000001f4a900aRCRD";"ALVAREZ ABELLAN";"CALLE";"V";"17";"";"";"";"";"MADRID";"MADRID";"28025";"PUERTA BONITA";"CARABANCHEL";"437842";"4470768";"40.38519101985389";"-3.7323123187363367";"";"";"";"/contenido/entidadesYorganismos/TemplosOtrasReligiones"; 
7063848;"Iglesia Evangélica Bautista Barrio del Pilar";"Templo evangélico";"";"";"Metro: Barrio del Pilar (línea 9)  Bus: 49, 83, 128, 132, 134, 137, 147";"";"3";"http://www.madrid.es/sites/v/index.jsp?vgnextchannel=bfa48ab43d6bb410VgnVCM100000171f5a0aRCRD&vgnextoid=d7521ea949750410VgnVCM2000000c205a0aRCRD";"GINZO DE LIMIA";"CALLE";"V";"44";"";"";"";"";"MADRID";"MADRID";"28029";"LA PAZ";"FUENCARRAL-EL PARDO";"440400";"4481110";"40.47854013481567";"-3.703163788451918";"";"";"";"/contenido/entidadesYorganismos/TemplosOtrasReligiones"; 
11027012;"Iglesia Evangélica Buenas Nuevas la Gran Comisión";"Templo evangélico";"";"";"Metro: Urgel (línea 5)  Bus: 118, 119, 34, 35";"";"3";"http://www.madrid.es/sites/v/index.jsp?vgnextchannel=bfa48ab43d6bb410VgnVCM100000171f5a0aRCRD&vgnextoid=6731b97c8136d610VgnVCM2000001f4a900aRCRD";"RADIO";"CALLE";"V";"12";"BAJO";"A";"";"";"MADRID";"MADRID";"28019";"OPAÑEL";"CARABANCHEL";"438610";"4471562";"40.39240076651593";"-3.7233440134536795";"";"";"";"/contenido/entidadesYorganismos/TemplosOtrasReligiones"; 
11027019;"Iglesia Evangélica Casa de la Misericordia";"Templo evangélico";"";"";"Metro: Oporto (líneas 5 y 6)  Bus: 55";"";"3";"http://www.madrid.es/sites/v/index.jsp?vgnextchannel=bfa48ab43d6bb410VgnVCM100000171f5a0aRCRD&vgnextoid=c191b97c8136d610VgnVCM2000001f4a900aRCRD";"SANTIAGO ESTEVEZ";"CALLE";"V";"29";"BAJO";"IZQUIERDA";"";"";"MADRID";"MADRID";"28019";"SAN ISIDRO";"CARABANCHEL";"437687";"4471420";"40.39105388398816";"-3.734197628694965";"";"";"";"/contenido/entidadesYorganismos/TemplosOtrasReligiones"; 
7065547;"Iglesia Evangélica Casa de Oración";"Templo evangélico";"";"";"Bus: 24, 57, 144  Renfe: Asamblea de Madrid - Entrevías";"";"3";"http://www.madrid.es/sites/v/index.jsp?vgnextchannel=bfa48ab43d6bb410VgnVCM100000171f5a0aRCRD&vgnextoid=75ab8fd21ad50410VgnVCM2000000c205a0aRCRD";"FELIPE DE DIEGO";"CALLE";"V";"3";"";"";"";"Bloque A, posterior";"MADRID";"MADRID";"28018";"PALOMERAS BAJAS";"PUENTE DE VALLECAS";"443720";"4470088";"40.379470784588214";"-3.663021565402853";"";"";"";"/contenido/entidadesYorganismos/TemplosOtrasReligiones"; 
7065462;"Iglesia Evangélica Casa de Oración de Madrid";"Templo evangélico";"";"";"Metro: Manuel Becerra (líneas 2, 6)  Bus: 1, 43, 74, 12, 210, 48, 56, C1";"";"3";"http://www.madrid.es/sites/v/index.jsp?vgnextchannel=bfa48ab43d6bb410VgnVCM100000171f5a0aRCRD&vgnextoid=644198d978d50410VgnVCM2000000c205a0aRCRD";"LONDRES";"CALLE";"V";"13";"";"";"";"";"MADRID";"MADRID";"28028";"GUINDALERA";"SALAMANCA";"443217";"4475862";"40.43146112930494";"-3.6694502641980313";"";"";"";"/contenido/entidadesYorganismos/TemplosOtrasReligiones"; 
7065574;"Iglesia Evangélica China Española";"Templo evangélico";"";"";"Metro: Alvarado (línea 1)  Bus: 124, 128, 3, 64, 66";"";"3";"http://www.madrid.es/sites/v/index.jsp?vgnextchannel=bfa48ab43d6bb410VgnVCM100000171f5a0aRCRD&vgnextoid=5ff28fd21ad50410VgnVCM2000000c205a0aRCRD";"CAROLINAS";"CALLE";"V";"10";"";"";"";"";"MADRID";"MADRID";"28039";"BELLAS VISTAS";"TETUAN";"440229";"4478081";"40.451241419899205";"-3.704895759227494";"";"";"";"/contenido/entidadesYorganismos/TemplosOtrasReligiones"; 
7063679;"Iglesia Evangélica Cristo Vive";"Templo evangélico.";"";"";"Metro: Pinar del Rey (línea 8)  Bus: 87, 72, 9";"";"3";"http://www.madrid.es/sites/v/index.jsp?vgnextchannel=bfa48ab43d6bb410VgnVCM100000171f5a0aRCRD&vgnextoid=2224216f16350410VgnVCM2000000c205a0aRCRD";"GRAN VIA DE HORTALEZA";"AVENIDA";"V";"30";"";"";"";"";"MADRID";"MADRID";"28043";"CANILLAS";"HORTALEZA";"444577";"4479753";"40.46660577055004";"-3.6537495353492995";"";"";"";"/contenido/entidadesYorganismos/TemplosOtrasReligiones"; 
23684;"Iglesia Evangélica de Aluche";"Templo evangélico";"";"";"Metro: Eugenia de Montijo (línea 5)  Bus: 17";"";"0";"http://www.madrid.es/sites/v/index.jsp?vgnextchannel=bfa48ab43d6bb410VgnVCM100000171f5a0aRCRD&vgnextoid=bf9b92355c51c010VgnVCM2000000c205a0aRCRD";"NUESTRA SEÑORA DE LA LUZ";"CALLE";"V";"118";"";"";"";"";"MADRID";"MADRID";"28047";"ALUCHE";"LATINA";"436213";"4470932";"40.38654208091557";"-3.751536019050476";"";"";"";"/contenido/entidadesYorganismos/TemplosOtrasReligiones"; 
7065594;"Iglesia Evangélica de Hermanos El Shadday";"Templo evangélico";"";"";"Bus: 44, 127";"";"3";"http://www.madrid.es/sites/v/index.jsp?vgnextchannel=bfa48ab43d6bb410VgnVCM100000171f5a0aRCRD&vgnextoid=352afe5dfad50410VgnVCM2000000c205a0aRCRD";"MARIA PEDRAZA";"CALLE";"V";"11";"";"";"";"";"MADRID";"MADRID";"28039";"BELLAS VISTAS";"TETUAN";"439849";"4478318";"40.453349071696216";"-3.7093874627751746";"";"";"";"/contenido/entidadesYorganismos/TemplosOtrasReligiones"; 
11028295;"Iglesia Evangélica de Hermanos en Aluche - Madrid";"Templo evangélico";"";"";"Metro: Empalme (línea 5)  Bus: 131, 36, H";"";"3";"http://www.madrid.es/sites/v/index.jsp?vgnextchannel=bfa48ab43d6bb410VgnVCM100000171f5a0aRCRD&vgnextoid=a02643cf28c6d610VgnVCM1000001d4a900aRCRD";"TEMBLEQUE";"CALLE";"V";"140";"";"";"";"";"MADRID";"MADRID";"28024";"ALUCHE";"LATINA";"434986";"4471537";"40.39189873720004";"-3.7660307873771934";"";"";"";"/contenido/entidadesYorganismos/TemplosOtrasReligiones"; 
7065598;"Iglesia Evangélica del Nazareno";"Templo evangélico";"";"";"Metro: Abrantes (línea 11)  Bus: 118, 247";"";"3";"http://www.madrid.es/sites/v/index.jsp?vgnextchannel=bfa48ab43d6bb410VgnVCM100000171f5a0aRCRD&vgnextoid=ef5dfe5dfad50410VgnVCM2000000c205a0aRCRD";"PELICANO";"CALLE";"V";"26";"";"";"";"";"MADRID";"MADRID";"28025";"ABRANTES";"CARABANCHEL";"438184";"4470600";"40.383690841533735";"-3.728283631976347";"";"";"";"/contenido/entidadesYorganismos/TemplosOtrasReligiones"; 
11028306;"Iglesia Evangélica Emaús";"Templo evangélico";"";"";"Bus: 77, 167";"";"3";"http://www.madrid.es/sites/v/index.jsp?vgnextchannel=bfa48ab43d6bb410VgnVCM100000171f5a0aRCRD&vgnextoid=1de643cf28c6d610VgnVCM1000001d4a900aRCRD";"AGUAVIVA";"CALLE";"V";"6";"";"";"";"";"MADRID";"MADRID";"28022";"REJAS";"SAN BLAS-CANILLEJAS";"451951";"4477716";"40.4487149362724";"-3.5666134456579752";"";"";"";"/contenido/entidadesYorganismos/TemplosOtrasReligiones"; 
7063733;"Iglesia Evangélica Encuentro con Dios";"Templo evangélico";"";"";"Metro: Vinateros (línea 9)  Bus: 30, 32, 71, 113";"";"3";"http://www.madrid.es/sites/v/index.jsp?vgnextchannel=bfa48ab43d6bb410VgnVCM100000171f5a0aRCRD&vgnextoid=f0fe7b05a8350410VgnVCM2000000c205a0aRCRD";"JOSE DEL PRADO Y PALACIO";"CALLE";"V";"1";"";"";"";"Local 4";"MADRID";"MADRID";"28030";"MEDIA LEGUA";"MORATALAZ";"444519";"4473465";"40.40995541329681";"-3.653903803273293";"";"";"";"/contenido/entidadesYorganismos/TemplosOtrasReligiones"; 
11028319;"Iglesia Evangélica Evangelizando las Naciones";"Templo evangélico";"";"";"Metro: Villaverde Bajo Cruce (línea 3)  Bus: 22, 59, 79, 85, 116, 18, 86";"";"3";"http://www.madrid.es/sites/v/index.jsp?vgnextchannel=bfa48ab43d6bb410VgnVCM100000171f5a0aRCRD&vgnextoid=11a903ce1ec6d610VgnVCM1000001d4a900aRCRD";"GIGANTES Y CABEZUDOS";"PASEO";"V";"48";"BAJO";"1,2";"";"";"MADRID";"MADRID";"28041";"LOS ANGELES";"VILLAVERDE";"441079";"4467423";"40.35529078999778";"-3.6938688031840106";"";"";"";"/contenido/entidadesYorganismos/TemplosOtrasReligiones"; 
11028330;"Iglesia Evangélica Fe, Esperanza y Amor";"Templo evangélico";"";"";"Metro: García Noblejas (línea 7)  Bus: 28";"";"3";"http://www.madrid.es/sites/v/index.jsp?vgnextchannel=bfa48ab43d6bb410VgnVCM100000171f5a0aRCRD&vgnextoid=49da03ce1ec6d610VgnVCM1000001d4a900aRCRD";"PATRIARCA SAN JOSE";"CALLE";"V";"9";"SUBSÓTANO";"";"";"";"MADRID";"MADRID";"28037";"SIMANCAS";"SAN BLAS-CANILLEJAS";"446717";"4475735";"40.43055108462239";"-3.628173673450934";"";"";"";"/contenido/entidadesYorganismos/TemplosOtrasReligiones"; 
11028343;"Iglesia Evangélica Filadelfia del Centro";"Templo evangélico";"";"";"Metro: La Latina (línea 5)  Bus: 17, 18, 23, 35, 60  Aparcamiento: Mercado de la Cebada (501), Plaza de la Cebada sin número";"";"3";"http://www.madrid.es/sites/v/index.jsp?vgnextchannel=bfa48ab43d6bb410VgnVCM100000171f5a0aRCRD&vgnextoid=60dc03ce1ec6d610VgnVCM1000001d4a900aRCRD";"RODRIGO DE GUEVARA";"CALLE";"V";"2";"";"";"";"";"MADRID";"MADRID";"28005";"EMBAJADORES";"CENTRO";"439849";"4473429";"40.40931307515139";"-3.7089216905673084";"";"";"";"/contenido/entidadesYorganismos/TemplosOtrasReligiones"; 
11028400;"Iglesia Evangélica Filadelfia Orcasur";"Templo evangélico";"";"";"Cercanías: Orcasitas (C4)  Bus: 116, 78, 76";"";"3";"http://www.madrid.es/sites/v/index.jsp?vgnextchannel=bfa48ab43d6bb410VgnVCM100000171f5a0aRCRD&vgnextoid=345103ce1ec6d610VgnVCM1000001d4a900aRCRD";"ALBU&amp;Ntilde;UELAS";"CALLE";"V";"4";"";"";"";"";"MADRID";"MADRID";"28041";"ORCASUR";"USERA";"440539";"4468625";"40.366085156865104";"-3.700342852740247";"";"";"";"/contenido/entidadesYorganismos/TemplosOtrasReligiones"; 
11028338;"Iglesia Evangélica Filadelfia (El Rayo)";"Templo evangélico";"";"";"Metro: Alto del Arenal (línea 1)  Bus: 10, 136";"";"3";"http://www.madrid.es/sites/v/index.jsp?vgnextchannel=bfa48ab43d6bb410VgnVCM100000171f5a0aRCRD&vgnextoid=975b03ce1ec6d610VgnVCM1000001d4a900aRCRD";"RIO ARAUCA";"CALLE";"V";"8";"";"";"";"";"MADRID";"MADRID";"28018";"PORTAZGO";"PUENTE DE VALLECAS";"444761";"4470992";"40.387701083626446";"-3.650824699019214";"";"";"";"/contenido/entidadesYorganismos/TemplosOtrasReligiones"; 
7065792;"Iglesia Evangélica Fuente de la Vida, Asambleas de Dios";"Templo evangélico";"";"";"Metro: Portazgo (línea 1)  Bus: 10, 24, 57, 111, 310";"";"3";"http://www.madrid.es/sites/v/index.jsp?vgnextchannel=bfa48ab43d6bb410VgnVCM100000171f5a0aRCRD&vgnextoid=e9e95ac33d160410VgnVCM2000000c205a0aRCRD";"SIERRA CARBONERA";"CALLE";"V";"31";"";"";"";"";"MADRID";"MADRID";"28053";"PALOMERAS BAJAS";"PUENTE DE VALLECAS";"443649";"4471505";"40.39224017330228";"-3.663983360780897";"";"";"";"/contenido/entidadesYorganismos/TemplosOtrasReligiones"; 
11431454;"Iglesia evangélica Fundación Federico Fliedner";"Templo evangélico";"";"";"Metro: Cuatro Caminos (líneas 1, 2, 6)  Bus: 37, 149, 3, 45";"";"3";"http://www.madrid.es/sites/v/index.jsp?vgnextchannel=bfa48ab43d6bb410VgnVCM100000171f5a0aRCRD&vgnextoid=b1d4b5d56867a710VgnVCM1000001d4a900aRCRD";"BRAVO MURILLO";"CALLE";"V";"85";"";"";"";"";"MADRID";"MADRID";"28003";"VALLEHERMOSO";"CHAMBERI";"440280";"4477381";"40.44493824188452";"-3.70421024880097";"";"";"";"/contenido/entidadesYorganismos/TemplosOtrasReligiones"; 
11431571;"Iglesia Evangélica Jesús es el Señor Torre Fuerte";"Templo evangélico";"";"";"Metro: Vista Alegre (línea 5)";"";"3";"http://www.madrid.es/sites/v/index.jsp?vgnextchannel=bfa48ab43d6bb410VgnVCM100000171f5a0aRCRD&vgnextoid=f5418000baa7a710VgnVCM1000001d4a900aRCRD";"BLANDON";"CALLE";"V";"6";"";"";"";"";"MADRID";"MADRID";"28025";"VISTA ALEGRE";"CARABANCHEL";"437272";"4471254";"40.38952280235475";"-3.739074970950569";"";"";"";"/contenido/entidadesYorganismos/TemplosOtrasReligiones"; 
11028407;"Iglesia Evangélica Las Águilas";"Templo evangélico";"";"";"Metro: Aluche (línea 5)  Bus: 138, 17  Cercanías: Aluche (C5)";"";"3";"http://www.madrid.es/sites/v/index.jsp?vgnextchannel=bfa48ab43d6bb410VgnVCM100000171f5a0aRCRD&vgnextoid=34b203ce1ec6d610VgnVCM1000001d4a900aRCRD";"FUERTE DE NAVIDAD";"CALLE";"V";"19";"";"";"";"";"MADRID";"MADRID";"28044";"LAS AGUILAS";"LATINA";"434906";"4470254";"40.380332955379934";"-3.7668506940875517";"";"";"";"/contenido/entidadesYorganismos/TemplosOtrasReligiones"; 
11028410;"Iglesia Evangélica Manantial de Vida Center";"Templo evangélico";"";"";"Bus: 6, 60, 81, 78";"";"3";"http://www.madrid.es/sites/v/index.jsp?vgnextchannel=bfa48ab43d6bb410VgnVCM100000171f5a0aRCRD&vgnextoid=fef303ce1ec6d610VgnVCM1000001d4a900aRCRD";"CERRO DE LOS ANGELES";"AVENIDA";"V";"10";"1";"B";"";"";"MADRID";"MADRID";"28026";"ZOFIO";"USERA";"439475";"4470174";"40.379960391322925";"-3.7130159457712084";"";"";"";"/contenido/entidadesYorganismos/TemplosOtrasReligiones"; 
11028415;"Iglesia Evangélica Ministerio Pasión por Cristo";"Templo evangélico";"";"";"Metro: San Francisco (línea 11)  Bus: 108, 118, 121, 131, 47";"";"3";"http://www.madrid.es/sites/v/index.jsp?vgnextchannel=bfa48ab43d6bb410VgnVCM100000171f5a0aRCRD&vgnextoid=bd0703ce1ec6d610VgnVCM1000001d4a900aRCRD";"REUS";"CALLE";"V";"8";"";"";"";"";"MADRID";"MADRID";"28044";"BUENAVISTA";"CARABANCHEL";"436673";"4469269";"40.37160136859314";"-3.7459391632325407";"";"";"";"/contenido/entidadesYorganismos/TemplosOtrasReligiones"; 
7063835;"Iglesia evangélica Ministerio Reconciliación y Restauración Yo Soy";"Templo evangélico";"";"";"Metro: Vista Alegre (línea 5)  Bus: 55";"";"3";"http://www.madrid.es/sites/v/index.jsp?vgnextchannel=bfa48ab43d6bb410VgnVCM100000171f5a0aRCRD&vgnextoid=bd9c1ea949750410VgnVCM2000000c205a0aRCRD";"TUCAN";"CALLE";"V";"1";"";"";"";"";"MADRID";"MADRID";"28025";"VISTA ALEGRE";"CARABANCHEL";"437379";"4471334";"40.39025255838031";"-3.7378161137088908";"";"";"";"/contenido/entidadesYorganismos/TemplosOtrasReligiones"; 
7063724;"Iglesia Evangélica Nueva Vida";"Templo evangélico";"";"";"Metro: Ciudad Lineal (línea 5)  Bus: 105, 38, 4, 48, 70";"";"3";"http://www.madrid.es/sites/v/index.jsp?vgnextchannel=bfa48ab43d6bb410VgnVCM100000171f5a0aRCRD&vgnextoid=4996e44317350410VgnVCM2000000c205a0aRCRD";"ARGOS";"CALLE";"V";"13";"";"";"";"o calle Caunedo, 16";"MADRID";"MADRID";"28037";"SIMANCAS";"SAN BLAS-CANILLEJAS";"446148";"4476431";"40.436772923362945";"-3.634945071142653";"";"";"";"/contenido/entidadesYorganismos/TemplosOtrasReligiones"; 
7064948;"Iglesia Evangélica Pentecostal Amistad Cristiana";"Templo evangélico";"";"";"Metro: Canal (línea 2, 7), Quevedo (2)  Bus: 2, 12";"";"3";"http://www.madrid.es/sites/v/index.jsp?vgnextchannel=bfa48ab43d6bb410VgnVCM100000171f5a0aRCRD&vgnextoid=64f10ac0dfc50410VgnVCM2000000c205a0aRCRD";"VALLEHERMOSO";"CALLE";"V";"70";"";"";"";"";"MADRID";"MADRID";"28015";"ARAPILES";"CHAMBERI";"439929";"4476531";"40.437256742788904";"-3.708286842692643";"";"";"";"/contenido/entidadesYorganismos/TemplosOtrasReligiones"; 
18304;"Iglesia Evangélica Pentecostal Bethel";"Templo evangélico";"";"";"Metro: Marqués de Vadillo (línea 5)  Bus: 23, 116";"";"3";"http://www.madrid.es/sites/v/index.jsp?vgnextchannel=bfa48ab43d6bb410VgnVCM100000171f5a0aRCRD&vgnextoid=a2cf6f065851c010VgnVCM2000000c205a0aRCRD";"FERNANDO DIAZ DE MENDOZA";"CALLE";"NUM";"3";"";"";"";"";"MADRID";"MADRID";"28019";"COMILLAS";"CARABANCHEL";"439488";"4471762";"40.39425444284573";"-3.7130323684423163";"";"";"";"/contenido/entidadesYorganismos/TemplosOtrasReligiones"; 
11028417;"Iglesia Evangélica Pentecostal Misión 1909";"Templo evangélico";"";"";"Metro: Urgel (línea 5)  Bus: 118, 119, 34, 35";"";"3";"http://www.madrid.es/sites/v/index.jsp?vgnextchannel=bfa48ab43d6bb410VgnVCM100000171f5a0aRCRD&vgnextoid=26e703ce1ec6d610VgnVCM1000001d4a900aRCRD";"VIRGEN DE BELEN";"CALLE";"V";"42";"BAJO";"";"";"";"MADRID";"MADRID";"28019";"OPAÑEL";"CARABANCHEL";"438781";"4471349";"40.390490853232684";"-3.721308792690415";"";"";"";"/contenido/entidadesYorganismos/TemplosOtrasReligiones"; 
7063715;"Iglesia Evangélica Pentecostal Salem";"";"";"";"Bus: 155";"";"3";"http://www.madrid.es/sites/v/index.jsp?vgnextchannel=bfa48ab43d6bb410VgnVCM100000171f5a0aRCRD&vgnextoid=6fb1e44317350410VgnVCM2000000c205a0aRCRD";"CIDRO";"CALLE";"V";"8";"";"";"";"";"MADRID";"MADRID";"28044";"BUENAVISTA";"CARABANCHEL";"436652";"4468857";"40.36788312377922";"-3.7461462154794596";"";"";"";"/contenido/entidadesYorganismos/TemplosOtrasReligiones"; 
7065603;"Iglesia Evangélica Pueblo Nuevo";"Templo evangélico";"";"";"Metro: Vicálvaro (línea 9)  Bus: 4, 100, 106, E3";"";"3";"http://www.madrid.es/sites/v/index.jsp?vgnextchannel=bfa48ab43d6bb410VgnVCM100000171f5a0aRCRD&vgnextoid=d6adfe5dfad50410VgnVCM2000000c205a0aRCRD";"VILLACARLOS";"CALLE";"V";"14";"";"";"";"";"MADRID";"MADRID";"28032";"CASCO H.VICALVARO";"VICALVARO";"448561";"4472995";"40.405980938654075";"-3.6062299408865495";"";"";"";"/contenido/entidadesYorganismos/TemplosOtrasReligiones"; 
11028554;"Iglesia Evangélica Servidores de Vida";"Templo evangélico";"";"";"Metro: Vista Alegre (línea 5)  Bus: 35";"";"3";"http://www.madrid.es/sites/v/index.jsp?vgnextchannel=bfa48ab43d6bb410VgnVCM100000171f5a0aRCRD&vgnextoid=9069fadc26d6d610VgnVCM1000001d4a900aRCRD";"CASTROJERIZ";"CALLE";"V";"8";"";"";"";"";"MADRID";"MADRID";"28025";"VISTA ALEGRE";"CARABANCHEL";"437276";"4471003";"40.387266618692394";"-3.738996818463832";"";"";"";"/contenido/entidadesYorganismos/TemplosOtrasReligiones"; 
7065052;"Iglesia Evangelio Cuadrangular Vida Nueva Usera";"Templo evangélico";"";"";"Metro: Usera (línea 6)  Bus: 247, 47, 6, 78, 23, 18, 22, 59, 76, 79, 85, 86";"";"3";"http://www.madrid.es/sites/v/index.jsp?vgnextchannel=bfa48ab43d6bb410VgnVCM100000171f5a0aRCRD&vgnextoid=db313ddd32d50410VgnVCM2000000c205a0aRCRD";"MONEDEROS";"CALLE";"V";"22";"";"";"";"";"MADRID";"MADRID";"28026";"MOSCARDO";"USERA";"440451";"4471016";"40.387603572276106";"-3.7016044995191493";"";"";"";"/contenido/entidadesYorganismos/TemplosOtrasReligiones"; 
11028542;"Iglesia Gloria de Dios";"Templo evangélico";"";"";"Metro: Campamento (línea 5)  Bus: 131";"";"3";"http://www.madrid.es/sites/v/index.jsp?vgnextchannel=bfa48ab43d6bb410VgnVCM100000171f5a0aRCRD&vgnextoid=1367af9c53d6d610VgnVCM1000001d4a900aRCRD";"MAQUEDA";"CALLE";"V";"30";"";"";"";"LOCAL 60";"MADRID";"MADRID";"28024";"ALUCHE";"LATINA";"435057";"4471713";"40.39349551141014";"-3.7652131230219634";"";"";"";"/contenido/entidadesYorganismos/TemplosOtrasReligiones"; 
7065841;"Iglesia Internacional Alianza de Amor";"Templo evangélico";"";"";"Bus: 116";"";"3";"http://www.madrid.es/sites/v/index.jsp?vgnextchannel=bfa48ab43d6bb410VgnVCM100000171f5a0aRCRD&vgnextoid=3f915ac33d160410VgnVCM2000000c205a0aRCRD";"ANTONIO GONZALEZ PORRAS";"CALLE";"V";"25";"";"";"";"";"MADRID";"MADRID";"28019";"OPAÑEL";"CARABANCHEL";"439074";"4471366";"40.39066598347717";"-3.7178606509833854";"";"";"";"/contenido/entidadesYorganismos/TemplosOtrasReligiones"; 
11028547;"Iglesia Jesús es el Maestro";"Templo evangélico";"";"";"Metro: Lucero (línea 6)  Bus: 138, 31";"";"3";"http://www.madrid.es/sites/v/index.jsp?vgnextchannel=bfa48ab43d6bb410VgnVCM100000171f5a0aRCRD&vgnextoid=bfe8fadc26d6d610VgnVCM1000001d4a900aRCRD";"ALEJANDRINA MORAN";"CALLE";"V";"24";"";"";"";"";"MADRID";"MADRID";"28047";"LUCERO";"LATINA";"436606";"4472696";"40.40246457556407";"-3.7470680018458173";"";"";"";"/contenido/entidadesYorganismos/TemplosOtrasReligiones"; 
11431592;"Iglesia Ministerio Belem";"Templo evangélico";"";"";"Metro: Vista Alegre (línea 5)  Bus: 55";"";"3";"http://www.madrid.es/sites/v/index.jsp?vgnextchannel=bfa48ab43d6bb410VgnVCM100000171f5a0aRCRD&vgnextoid=b7528000baa7a710VgnVCM1000001d4a900aRCRD";"GAVIOTA";"CALLE";"V";"55";"1";"";"";"";"MADRID";"MADRID";"28025";"VISTA ALEGRE";"CARABANCHEL";"437321";"4471142";"40.388519366018635";"-3.7384836194997324";"";"";"";"/contenido/entidadesYorganismos/TemplosOtrasReligiones"; 
11431597;"Iglesia Ministerio Denuedo";"Templo evangélico";"";"";"Metro: Abrantes (línea 11)  Bus: 247, 118";"";"3";"http://www.madrid.es/sites/v/index.jsp?vgnextchannel=bfa48ab43d6bb410VgnVCM100000171f5a0aRCRD&vgnextoid=5db28000baa7a710VgnVCM1000001d4a900aRCRD";"MINEROS";"CALLE";"V";"12";"1";"";"";"";"MADRID";"MADRID";"28025";"ABRANTES";"CARABANCHEL";"438153";"4470510";"40.38288913614371";"-3.7286284347044356";"";"";"";"/contenido/entidadesYorganismos/TemplosOtrasReligiones"; 
11028550;"Iglesia Punto de Encuentro";"Templo evangélico";"";"";"Bus: 79";"";"3";"http://www.madrid.es/sites/v/index.jsp?vgnextchannel=bfa48ab43d6bb410VgnVCM100000171f5a0aRCRD&vgnextoid=6129fadc26d6d610VgnVCM1000001d4a900aRCRD";"RESINA";"CALLE";"V";"13";"1";"Nave 11";"";"";"MADRID";"MADRID";"28021";"VILLAVERDE ALTO C.H.";"VILLAVERDE";"440712";"4465270";"40.33587371620533";"-3.697986972585755";"";"";"";"/contenido/entidadesYorganismos/TemplosOtrasReligiones"; 
7065918;"Iglesia Templo de Dios";"Templo evangélico";"";"";"Metro: Urgel (línea 5)  Bus: 34, 35, 118, 119";"";"3";"http://www.madrid.es/sites/v/index.jsp?vgnextchannel=bfa48ab43d6bb410VgnVCM100000171f5a0aRCRD&vgnextoid=c70bf181df160410VgnVCM2000000c205a0aRCRD";"MARQUESA DE ARG&amp;Uuml;ESO";"CALLE";"V";"22";"";"";"";"";"MADRID";"MADRID";"28019";"OPAÑEL";"CARABANCHEL";"438567";"4471460";"40.391475542527616";"-3.7238429956192007";"";"";"";"/contenido/entidadesYorganismos/TemplosOtrasReligiones"; 
11431653;"Ministerio Bautista Internacional Madrid";"Templo evangélico";"";"";"Metro: Ascao (línea 7)  Bus: 28";"";"3";"http://www.madrid.es/sites/v/index.jsp?vgnextchannel=bfa48ab43d6bb410VgnVCM100000171f5a0aRCRD&vgnextoid=e0f48000baa7a710VgnVCM1000001d4a900aRCRD";"ASCAO";"CALLE";"V";"62";"";"LOCAL";"";"";"MADRID";"MADRID";"28017";"PUEBLO NUEVO";"CIUDAD LINEAL";"445899";"4475833";"40.43138416943838";"-3.637828569222944";"";"";"";"/contenido/entidadesYorganismos/TemplosOtrasReligiones"; 
11431601;"Ministerio Pastoral Misionero por amor  su Cruz";"Templo evangélico";"";"";"Metro: Tetuán (línea 1)  Bus: 11";"";"3";"http://www.madrid.es/sites/v/index.jsp?vgnextchannel=bfa48ab43d6bb410VgnVCM100000171f5a0aRCRD&vgnextoid=9e138000baa7a710VgnVCM1000001d4a900aRCRD";"ALGODONALES";"CALLE";"V";"40";"BAJO EXTERIOR";"";"";"";"MADRID";"MADRID";"28039";"BERRUGUETE";"TETUAN";"440440";"4479191";"40.46125519480652";"-3.702498292533961";"";"";"";"/contenido/entidadesYorganismos/TemplosOtrasReligiones"; 
11030093;"Misión Evangélica Urbana";"Templo evangélico";"";"";"Metro: Antón Martín, Tirso de Molina (línea 1)  Bus: M1  Bicimad: Estación 43 (calle Lavapiés, 34)";"";"3";"http://www.madrid.es/sites/v/index.jsp?vgnextchannel=bfa48ab43d6bb410VgnVCM100000171f5a0aRCRD&vgnextoid=bb62be0e48e6d610VgnVCM2000001f4a900aRCRD";"CALVARIO";"CALLE";"V";"12";"";"";"";"";"MADRID";"MADRID";"28012";"EMBAJADORES";"CENTRO";"440415";"4473663";"40.41145685017254";"-3.702266928516734";"";"";"";"/contenido/entidadesYorganismos/TemplosOtrasReligiones"; 
11030099;"Nuevas Fronteras Madrid";"Templo evangélico";"";"";"Metro: Valdezarza (línea 7)  Bus: 126";"";"3";"http://www.madrid.es/sites/v/index.jsp?vgnextchannel=bfa48ab43d6bb410VgnVCM100000171f5a0aRCRD&vgnextoid=06a2be0e48e6d610VgnVCM2000001f4a900aRCRD";"VALLE DE CACHEMIRA";"CALLE";"V";"28";"";"";"";"";"MADRID";"MADRID";"28039";"VALDEZARZA";"MONCLOA-ARAVACA";"439515";"4479747";"40.466201838360924";"-3.713456156309851";"";"";"";"/contenido/entidadesYorganismos/TemplosOtrasReligiones"; 
3742;"Primera Iglesia Evangélica Bautista de Madrid";"Templo evangélico";"";"";"Metro: Palos de la Frontera (línea 3)  Bus: 8, 47, 55, 102, 247  Renfe: Atocha";"";"3";"http://www.madrid.es/sites/v/index.jsp?vgnextchannel=bfa48ab43d6bb410VgnVCM100000171f5a0aRCRD&vgnextoid=ede51e79ee71c010VgnVCM1000000b205a0aRCRD";"GENERAL LACY";"CALLE";"V";"18";"";"";"";"";"MADRID";"MADRID";"28045";"PALOS DE MOGUER";"ARGANZUELA";"441371";"4472783";"40.403586898197894";"-3.690928534913438";"";"";"";"/contenido/entidadesYorganismos/TemplosOtrasReligiones"; 
11431636;"Sociedad Bíblica";"Templo evangélico";"";"";"Metro: Palos de la Frontera (línea 3)  Bus: 102, 8";"";"3";"http://www.madrid.es/sites/v/index.jsp?vgnextchannel=bfa48ab43d6bb410VgnVCM100000171f5a0aRCRD&vgnextoid=92148000baa7a710VgnVCM1000001d4a900aRCRD";"GENERAL LACY";"CALLE";"V";"7";"";"";"";"";"MADRID";"MADRID";"28045";"PALOS DE MOGUER";"ARGANZUELA";"441405";"4472778";"40.403559497921776";"-3.6905269925378845";"";"";"";"/contenido/entidadesYorganismos/TemplosOtrasReligiones"; 
189403;"Testigos Cristianos de Jehová. Avenida de Moratalaz";"";"";"";"Metro: Artilleros (línea 9)  Bus: 32";"";"3";"http://www.madrid.es/sites/v/index.jsp?vgnextchannel=bfa48ab43d6bb410VgnVCM100000171f5a0aRCRD&vgnextoid=3104784e0cc4f010VgnVCM2000000c205a0aRCRD";"MORATALAZ";"AVENIDA";"V";"143";"";"";"";"local 12";"MADRID";"MADRID";"28030";"MARROQUINA";"MORATALAZ";"445011";"4473146";"40.40711568603655";"-3.6480628737257152";"";"";"";"/contenido/entidadesYorganismos/TemplosOtrasReligiones"; 
189353;"Testigos Cristianos de Jehová. Calle Arroyo";"";"";"";"Metro: Ventilla (línea 9)  Bus: 49, 177";"";"3";"http://www.madrid.es/sites/v/index.jsp?vgnextchannel=bfa48ab43d6bb410VgnVCM100000171f5a0aRCRD&vgnextoid=a823784e0cc4f010VgnVCM2000000c205a0aRCRD";"ARROYO";"CALLE";"V";"23";"BAJA";"";"";"";"MADRID";"MADRID";"28029";"VALDEACEDERAS";"TETUAN";"440445";"4480138";"40.46978728598973";"-3.7025298582429698";"";"";"";"/contenido/entidadesYorganismos/TemplosOtrasReligiones"; 
189354;"Testigos Cristianos de Jehová. Calle Artistas";"";"";"";"Metro: Cuatro Caminos (líneas 1, 2, 6)  Bus: 149, C2, C1, 66, 124  Bicimad: Estación 123 (calle Raimundo Fernández Villaverde, 33)";"";"3";"http://www.madrid.es/sites/v/index.jsp?vgnextchannel=bfa48ab43d6bb410VgnVCM100000171f5a0aRCRD&vgnextoid=0e33784e0cc4f010VgnVCM2000000c205a0aRCRD";"ARTISTAS";"CALLE";"V";"22";"BAJO";"A";"";"";"MADRID";"MADRID";"28020";"CUATRO CAMINOS";"TETUAN";"440510";"4477640";"40.44728893529121";"-3.7015290370510474";"";"";"";"/contenido/entidadesYorganismos/TemplosOtrasReligiones"; 
5713730;"Testigos Cristianos de Jehová. Calle Carrascales";"";"";"";"Metro: Usera (línea 6)  Bus: 6";"";"3";"http://www.madrid.es/sites/v/index.jsp?vgnextchannel=bfa48ab43d6bb410VgnVCM100000171f5a0aRCRD&vgnextoid=13c13b49d7619210VgnVCM2000000c205a0aRCRD";"CARRASCALES";"CALLE";"V";"12";"BAJA";"1 derecha";"";"";"MADRID";"MADRID";"28026";"PRADOLONGO";"USERA";"439885";"4470346";"40.38152721787896";"-3.7082093955604063";"";"";"";"/contenido/entidadesYorganismos/TemplosOtrasReligiones"; 
189389;"Testigos Cristianos de Jehová. Calle Chantada";"";"";"";"Metro: Peñagrande (línea 7)  Bus: Línea 42";"";"3";"http://www.madrid.es/sites/v/index.jsp?vgnextchannel=bfa48ab43d6bb410VgnVCM100000171f5a0aRCRD&vgnextoid=f493784e0cc4f010VgnVCM2000000c205a0aRCRD";"CHANTADA";"CALLE";"V";"41";"";"LOCAL 6";"";"y 43";"MADRID";"MADRID";"28035";"PEÑA GRANDE";"FUENCARRAL-EL PARDO";"439292";"4480499";"40.47295576678733";"-3.7161763610140874";"";"";"";"/contenido/entidadesYorganismos/TemplosOtrasReligiones"; 
189398;"Testigos Cristianos de Jehová. Calle Doctor Gómez Ulla";"";"";"";"Metro: Manuel Becerra (líneas 2, 6)  Bus: 106, 110, 146, 21, 210, 38, 53, 12, 43, 56, C2, E5";"";"3";"http://www.madrid.es/sites/v/index.jsp?vgnextchannel=bfa48ab43d6bb410VgnVCM100000171f5a0aRCRD&vgnextoid=11c3784e0cc4f010VgnVCM2000000c205a0aRCRD";"DOCTOR GÓMEZ ULLA";"CALLE";"V";"16";"BAJA";"IZQUIERDA";"";"";"MADRID";"MADRID";"28028";"GUINDALERA";"SALAMANCA";"443381";"4475697";"40.4299768268144";"-3.667513892714285";"";"";"";"/contenido/entidadesYorganismos/TemplosOtrasReligiones"; 
189402;"Testigos Cristianos de Jehová. Calle Guamo";"";"";"";"Metro: San Lorenzo (línea 4)  Bus: 72, T11";"";"3";"http://www.madrid.es/sites/v/index.jsp?vgnextchannel=bfa48ab43d6bb410VgnVCM100000171f5a0aRCRD&vgnextoid=dbe3784e0cc4f010VgnVCM2000000c205a0aRCRD";"GUAMO";"CALLE";"V";"2";"BAJA";"LOCAL 1 BIS";"";"y 6";"MADRID";"MADRID";"28033";"PINAR DEL REY";"HORTALEZA";"446342";"4480387";"40.472423257425966";"-3.6329921848042237";"";"";"";"/contenido/entidadesYorganismos/TemplosOtrasReligiones"; 
189356;"Testigos Cristianos de Jehová. Calle Hilario Sangrador";"";"";"";"Bus: 31, 33, 36, 39, 65    Metro: Alto de Extremadura (línea 6)";"";"3";"http://www.madrid.es/sites/v/index.jsp?vgnextchannel=bfa48ab43d6bb410VgnVCM100000171f5a0aRCRD&vgnextoid=1673784e0cc4f010VgnVCM2000000c205a0aRCRD";"HILARIO SANGRADOR";"CALLE";"V";"8";"BAJA";"";"";"IZQUIERDA";"MADRID";"MADRID";"28011";"LUCERO";"LATINA";"437000";"4473304";"40.407960942737944";"-3.7424991074388743";"";"";"";"/contenido/entidadesYorganismos/TemplosOtrasReligiones"; 
11432581;"Testigos Cristianos de Jehová. Calle Ignacio Ellacuría";"";"";"";"Metro: El Carmen (línea 5)  Bus: 106, 110, 210";"";"3";"http://www.madrid.es/sites/v/index.jsp?vgnextchannel=bfa48ab43d6bb410VgnVCM100000171f5a0aRCRD&vgnextoid=97cd71649908a710VgnVCM1000001d4a900aRCRD";"IGNACIO ELLACURIA";"CALLE";"V";"3";"";"7";"";"";"MADRID";"MADRID";"28017";"VENTAS";"CIUDAD LINEAL";"444280";"4475590";"40.42908868520633";"-3.6568904225379044";"";"";"";"/contenido/entidadesYorganismos/TemplosOtrasReligiones"; 
189404;"Testigos Cristianos de Jehová. Calle Jacobinia";"";"";"";"Bus: 121, 131, 139    Metro: Carabanchel Alto (línea 11)";"";"3";"http://www.madrid.es/sites/v/index.jsp?vgnextchannel=bfa48ab43d6bb410VgnVCM100000171f5a0aRCRD&vgnextoid=9614784e0cc4f010VgnVCM2000000c205a0aRCRD";"JACOBINIA";"CALLE";"V";"70";"";"";"";"";"MADRID";"MADRID";"28047";"VISTA ALEGRE";"CARABANCHEL";"436009";"4469937";"40.377563130203534";"-3.7538276002522437";"";"";"";"/contenido/entidadesYorganismos/TemplosOtrasReligiones"; 
5713929;"Testigos Cristianos de Jehová. Calle Las Pedroñeras";"";"";"";"Bus: 104, 171, T11";"";"3";"http://www.madrid.es/sites/v/index.jsp?vgnextchannel=bfa48ab43d6bb410VgnVCM100000171f5a0aRCRD&vgnextoid=2ae45159bd619210VgnVCM2000000c205a0aRCRD";"LAS PEDRO&amp;Ntilde;ERAS";"CALLE";"V";"46";"";"LOCAL";"";"";"MADRID";"MADRID";"28043";"CANILLAS";"HORTALEZA";"446516";"4479828";"40.46740772482656";"-3.630892617916542";"";"";"";"/contenido/entidadesYorganismos/TemplosOtrasReligiones"; 
5713667;"Testigos Cristianos de Jehová. Calle Luis Ruiz";"";"";"";"Metro: García Noblejas (línea 7)  Bus: 28";"";"3";"http://www.madrid.es/sites/v/index.jsp?vgnextchannel=bfa48ab43d6bb410VgnVCM100000171f5a0aRCRD&vgnextoid=c9a65068d6619210VgnVCM2000000c205a0aRCRD";"LUIS RUIZ";"CALLE";"V";"75";"";"PUERTA 19";"";"";"MADRID";"MADRID";"28017";"PUEBLO NUEVO";"CIUDAD LINEAL";"446046";"4475461";"40.4280279977347";"-3.6360652956995043";"";"";"";"/contenido/entidadesYorganismos/TemplosOtrasReligiones"; 
189415;"Testigos Cristianos de Jehová. Calle Marcudos";"";"";"";"Metro: Usera (línea 6)  Bus: 23, 6, 78, 247, 47  Bicimad: Estación 213 (calle Antonio López, 129)";"";"3";"http://www.madrid.es/sites/v/index.jsp?vgnextchannel=bfa48ab43d6bb410VgnVCM100000171f5a0aRCRD&vgnextoid=1c64784e0cc4f010VgnVCM2000000c205a0aRCRD";"MARCUDOS";"CALLE";"V";"4";"BAJO";"3";"";"";"MADRID";"MADRID";"28026";"MOSCARDO";"USERA";"440442";"4471118";"40.38853080646351";"-3.701720159931242";"";"";"";"/contenido/entidadesYorganismos/TemplosOtrasReligiones"; 
189957;"Testigos Cristianos de Jehová. Calle Martín de Vargas";"";"";"";"Metro: Embajadores (línea 3), Acacias (línea 5)  Bus: 148, 60, 78  Renfe: Embajadores (C5)";"";"3";"http://www.madrid.es/sites/v/index.jsp?vgnextchannel=bfa48ab43d6bb410VgnVCM100000171f5a0aRCRD&vgnextoid=d0ea6dd8f677f010VgnVCM2000000c205a0aRCRD";"MARTIN DE VARGAS";"CALLE";"V";"26";"BAJA";"";"";"IZQUIERDA";"MADRID";"MADRID";"28005";"ACACIAS";"ARGANZUELA";"440454";"4472663";"40.40244073010048";"-3.701734952593744";"";"";"";"/contenido/entidadesYorganismos/TemplosOtrasReligiones"; 
11432584;"Testigos Cristianos de Jehová. Calle Martín Martínez";"";"";"";"Metro: Alfonso XIII (línea 4)  Bus: 73, 9";"";"3";"http://www.madrid.es/sites/v/index.jsp?vgnextchannel=bfa48ab43d6bb410VgnVCM100000171f5a0aRCRD&vgnextoid=d9fe71649908a710VgnVCM1000001d4a900aRCRD";"MARTIN MARTINEZ";"CALLE";"V";"4";"BAJA";"";"";"";"MADRID";"MADRID";"28002";"CIUDAD JARDIN";"CHAMARTIN";"442958";"4477570";"40.446837359952966";"-3.6726508650238014";"";"";"";"/contenido/entidadesYorganismos/TemplosOtrasReligiones"; 
189410;"Testigos Cristianos de Jehová. Calle Puerto de Pozazal";"";"";"Tres auditorios";"Bus: 130, T31    Renfe: Vallecas (C2)    Metro: Sierra de Guadalupe (línea 1)";"";"3";"http://www.madrid.es/sites/v/index.jsp?vgnextchannel=bfa48ab43d6bb410VgnVCM100000171f5a0aRCRD&vgnextoid=458e813cbcc4f010VgnVCM1000000b205a0aRCRD";"PUERTO DE POZAZAL";"CALLE";"V";"1";"BAJA";"";"";"";"MADRID";"MADRID";"28031";"CASCO H.VALLECAS";"VILLA DE VALLECAS";"446712";"4470267";"40.37941728069035";"-3.6290579482359915";"";"";"";"/contenido/entidadesYorganismos/TemplosOtrasReligiones"; 
189966;"Testigos Cristianos de Jehová. Calle San Moisés";"";"";"";"Bus: 57, 103, 111, 144  Renfe: Asamblea de Madrid, Entrevías (C2)";"";"3";"http://www.madrid.es/sites/v/index.jsp?vgnextchannel=bfa48ab43d6bb410VgnVCM100000171f5a0aRCRD&vgnextoid=e73b6dd8f677f010VgnVCM2000000c205a0aRCRD";"SAN MOISÉS";"CALLE";"V";"39";"BAJA";"B";"";"";"MADRID";"MADRID";"28018";"SAN DIEGO";"PUENTE DE VALLECAS";"443504";"4470379";"40.382077738308396";"-3.665580023171385";"";"";"";"/contenido/entidadesYorganismos/TemplosOtrasReligiones"; 
11432588;"Testigos Cristianos de Jehová. Calle Tembleque";"";"";"";"Metro: Empalme, Campamento (línea 4)  Bus: 25, 121, 138";"";"3";"http://www.madrid.es/sites/v/index.jsp?vgnextchannel=bfa48ab43d6bb410VgnVCM100000171f5a0aRCRD&vgnextoid=4daf71649908a710VgnVCM1000001d4a900aRCRD";"TEMBLEQUE";"CALLE";"V";"64";"BAJA";"";"";"";"MADRID";"MADRID";"28024";"ALUCHE";"LATINA";"435476";"4471898";"40.395189097488895";"-3.7603005676344834";"";"";"";"/contenido/entidadesYorganismos/TemplosOtrasReligiones"; 
189351;"Testigos Cristianos de Jehová. Calle Venancio Martín";"";"";"";"Metro: Nueva Numancia (línea 1)  Bus: 141  Bicimad: Estación 226 (Camino de Valderribas, 94)";"";"3";"http://www.madrid.es/sites/v/index.jsp?vgnextchannel=bfa48ab43d6bb410VgnVCM100000171f5a0aRCRD&vgnextoid=2903784e0cc4f010VgnVCM2000000c205a0aRCRD";"VENANCIO MARTIN";"CALLE";"V";"19";"";"";"";"local 2";"MADRID";"MADRID";"28038";"NUMANCIA";"PUENTE DE VALLECAS";"443866";"4472138";"40.39795732762339";"-3.6614706779617716";"";"";"";"/contenido/entidadesYorganismos/TemplosOtrasReligiones"; 
11431642;"Unión De Mujeres Evangélicas UDME";"Templo evangélico";"";"";"Metro: Alfonso XIII  (línea 4)  Bus: 120, 43, 40, 72, 73, 9";"";"3";"http://www.madrid.es/sites/v/index.jsp?vgnextchannel=bfa48ab43d6bb410VgnVCM100000171f5a0aRCRD&vgnextoid=cd448000baa7a710VgnVCM1000001d4a900aRCRD";"GABRIEL Y GALAN";"CALLE";"V";"26";"";"";"";"";"MADRID";"MADRID";"28002";"CIUDAD JARDIN";"CHAMARTIN";"443219";"4478101";"40.451635417260775";"-3.669617649841107";"";"";"";"/contenido/entidadesYorganismos/TemplosOtrasReligiones";